<?xml version="1.0" encoding="utf-8" ?>
<kml xmlns="http://www.opengis.net/kml/2.2">
<Document id="root_doc">
<Schema name="polgonos" id="polgonos">
	<SimpleField name="has" type="float"></SimpleField>
	<SimpleField name="PROPIETARIO" type="string"></SimpleField>
	<SimpleField name="CODIGO" type="string"></SimpleField>
	<SimpleField name="PROVINCIA" type="string"></SimpleField>
	<SimpleField name="CANTON" type="string"></SimpleField>
</Schema>
<Folder><name>polgonos</name>
  <Placemark>
	<description><![CDATA[
<table style="font-family:Arial;font-size:12px;width:100%;border-collapse:collapse;">
  <tr style="background:#9CBCE2;font-weight:bold;text-align:center;">
    <td colspan="2">SLC-107_1</td>
  </tr>
    <tr>
      <td>ID_interno </td>
      <td>SLC-107</td>
    </tr>
    <tr bgcolor="#D4E4F3">
      <td>ID_unidad</td>
      <td>SLC-107_1</td>
    </tr>
    <tr>
      <td>Area</td>
      <td>4.4917</td>
    </tr>
    <tr bgcolor="#D4E4F3">
      <td>Latitud</td>
      <td>-1.123215</td>
    </tr>
    <tr>
      <td>Longitud</td>
      <td>-79.652266</td>
    </tr>
    <tr bgcolor="#D4E4F3">
      <td>Perimetro</td>
      <td>1.1496</td>
    </tr>
</table>
]]></description>
	<Style><LineStyle><color>FF232323</color><width>0.737006</width></LineStyle><PolyStyle><fill>0</fill></PolyStyle></Style>
	<ExtendedData>
  <Data name="ID_interno "><value>SLC-107</value></Data>
  <Data name="ID_unidad"><value>SLC-107_1</value></Data>
  <Data name="Area"><value>4.4917</value></Data>
  <Data name="Latitud"><value>-1.123215</value></Data>
  <Data name="Longitud"><value>-79.652266</value></Data>
  <Data name="Perimetro"><value>1.1496</value></Data>
</ExtendedData>
      <MultiGeometry><Polygon><outerBoundaryIs><LinearRing><coordinates>-79.6538256507112,-1.12289787083052 -79.6501393742405,-1.12243243528117 -79.6498263883304,-1.12283559533601 -79.6508224792427,-1.12303594733463 -79.6507589165857,-1.12349738122091 -79.6531126219321,-1.12386243567153 -79.654183241833,-1.12398974008256 -79.653895650258,-1.12348943104597 -79.6538256507112,-1.12289787083052</coordinates></LinearRing></outerBoundaryIs></Polygon></MultiGeometry>
  </Placemark>
</Folder>
</Document></kml>
