<?xml version="1.0" encoding="utf-8" ?>
<kml xmlns="http://www.opengis.net/kml/2.2">
<Document id="root_doc">
<Schema name="polgonos" id="polgonos">
	<SimpleField name="ID_interno" type="string"></SimpleField>
	<SimpleField name="ID_unidad" type="string"></SimpleField>
	<SimpleField name="Area" type="float"></SimpleField>
	<SimpleField name="Latitud" type="float"></SimpleField>
	<SimpleField name="Longitud" type="float"></SimpleField>
</Schema>
<Folder><name>polgonos</name>
  <Placemark>
	<description><![CDATA[
<table style="font-family:Arial;font-size:12px;width:100%;border-collapse:collapse;">
  <tr style="background:#9CBCE2;font-weight:bold;text-align:center;">
    <td colspan="2">SLC-115_2</td>
  </tr>
    <tr>
      <td>ID_interno</td>
      <td>SLC-115</td>
    </tr>
    <tr bgcolor="#D4E4F3">
      <td>ID_unidad</td>
      <td>SLC-115_2</td>
    </tr>
    <tr>
      <td>Area</td>
      <td>0.9914</td>
    </tr>
    <tr bgcolor="#D4E4F3">
      <td>Latitud</td>
      <td>-1.009297</td>
    </tr>
    <tr>
      <td>Longitud</td>
      <td>-79.628279</td>
    </tr>
    <tr bgcolor="#D4E4F3">
      <td>Perimetro</td>
      <td>0.5818</td>
    </tr>
</table>
]]></description>
	<Style><LineStyle><color>ff0000ff</color></LineStyle><PolyStyle><fill>0</fill></PolyStyle></Style>
	<ExtendedData>
  <Data name="ID_interno"><value>SLC-115</value></Data>
  <Data name="ID_unidad"><value>SLC-115_2</value></Data>
  <Data name="Area"><value>0.9914</value></Data>
  <Data name="Latitud"><value>-1.009297</value></Data>
  <Data name="Longitud"><value>-79.628279</value></Data>
  <Data name="Perimetro"><value>0.5818</value></Data>
</ExtendedData>
      <MultiGeometry><Polygon><outerBoundaryIs><LinearRing><coordinates>-79.6294604507823,-1.00859068312348 -79.6294604507823,-1.00859068312348 -79.6274051571665,-1.00930795830028 -79.6274015106119,-1.00943277324674 -79.6274014461261,-1.00958653267041 -79.6273744174296,-1.00975836998019 -79.627518129121,-1.00989410117128 -79.6277967073813,-1.00983090684564 -79.6279494653464,-1.00982192708012 -79.6280842787867,-1.00974962694933 -79.6284708427723,-1.00930660194171 -79.6286686080186,-1.00910770296471 -79.6294595514712,-1.00859249167855 -79.6294604507823,-1.00859068312348</coordinates></LinearRing></outerBoundaryIs></Polygon></MultiGeometry>
  </Placemark>
</Folder>
</Document></kml>
