<?xml version="1.0" encoding="utf-8" ?>
<kml xmlns="http://www.opengis.net/kml/2.2">
<Document id="root_doc">
<Schema name="lote_2" id="lote_2">
	<SimpleField name="id" type="string"></SimpleField>
	<SimpleField name="Area" type="float"></SimpleField>
	<SimpleField name="ID_interno" type="string"></SimpleField>
	<SimpleField name="ID_unidad" type="string"></SimpleField>
	<SimpleField name="Latitud" type="float"></SimpleField>
	<SimpleField name="Longitud" type="float"></SimpleField>
</Schema>
<Folder><name>lote_2</name>
  <Placemark>
	<description><![CDATA[
<table style="font-family:Arial;font-size:12px;width:100%;border-collapse:collapse;">
  <tr style="background:#9CBCE2;font-weight:bold;text-align:center;">
    <td colspan="2">SLC-096_1</td>
  </tr>
    <tr>
      <td>Area</td>
      <td>1.3683</td>
    </tr>
    <tr bgcolor="#D4E4F3">
      <td>ID_interno</td>
      <td>SLC-096</td>
    </tr>
    <tr>
      <td>ID_unidad</td>
      <td>SLC-096_1</td>
    </tr>
    <tr bgcolor="#D4E4F3">
      <td>Latitud</td>
      <td>-1.108044</td>
    </tr>
    <tr>
      <td>Longitud</td>
      <td>-79.703971</td>
    </tr>
    <tr bgcolor="#D4E4F3">
      <td>Perimetro</td>
      <td>0.663</td>
    </tr>
</table>
]]></description>
	<Style><LineStyle><color>ff0000ff</color></LineStyle><PolyStyle><fill>0</fill></PolyStyle></Style>
	<ExtendedData>
  <Data name="Area"><value>1.3683</value></Data>
  <Data name="ID_interno"><value>SLC-096</value></Data>
  <Data name="ID_unidad"><value>SLC-096_1</value></Data>
  <Data name="Latitud"><value>-1.108044</value></Data>
  <Data name="Longitud"><value>-79.703971</value></Data>
  <Data name="Perimetro"><value>0.663</value></Data>
</ExtendedData>
      <Polygon><outerBoundaryIs><LinearRing><coordinates>-79.7034284099936,-1.10812512783099,0 -79.7030472010374,-1.10853308253918,0 -79.7031233087182,-1.10865074243226,0 -79.7034964710474,-1.10842413818958,0 -79.7035812959075,-1.10851129366959,0 -79.7037066891789,-1.10850727110902,0 -79.7039930149913,-1.10856023482262,0 -79.7043195739388,-1.10830346136687,0 -79.7043081745505,-1.1082769795079,0 -79.7044919058681,-1.10806311334701,0 -79.7047762200236,-1.10755660581034,0 -79.7048550099134,-1.10730184354872,0 -79.7049156948924,-1.10713591285338,0 -79.7046273574233,-1.10692472831861,0 -79.7038451582193,-1.1077118096511,0 -79.7040597349405,-1.10787639946037,0 -79.7039289772511,-1.10801718910669,0 -79.7035118937492,-1.10823574825866,0 -79.7034284099936,-1.10812512783099,0</coordinates></LinearRing></outerBoundaryIs></Polygon>
  </Placemark>
</Folder>
</Document></kml>
