<?xml version="1.0" encoding="utf-8" ?>
<kml xmlns="http://www.opengis.net/kml/2.2">
<Document id="root_doc">
<Schema name="polgonos" id="polgonos">
	<SimpleField name="PROPIETARIO" type="string"></SimpleField>
	<SimpleField name="CODIGO" type="string"></SimpleField>
	<SimpleField name="Has" type="float"></SimpleField>
	<SimpleField name="Datos" type="string"></SimpleField>
</Schema>
<Folder><name>polgonos</name>
  <Placemark>
	<description><![CDATA[
<table style="font-family:Arial;font-size:12px;width:100%;border-collapse:collapse;">
  <tr style="background:#9CBCE2;font-weight:bold;text-align:center;">
    <td colspan="2">SLC-086_1</td>
  </tr>
    <tr>
      <td>ID_interno</td>
      <td>SLC-086</td>
    </tr>
    <tr bgcolor="#D4E4F3">
      <td>ID_unidad</td>
      <td>SLC-086_1</td>
    </tr>
    <tr>
      <td>Area</td>
      <td>5.0245</td>
    </tr>
    <tr bgcolor="#D4E4F3">
      <td>Latitud</td>
      <td>-0.874426</td>
    </tr>
    <tr>
      <td>Longitud</td>
      <td>-79.634467</td>
    </tr>
    <tr bgcolor="#D4E4F3">
      <td>Perimetro</td>
      <td>2.5414</td>
    </tr>
</table>
]]></description>
	<Style><LineStyle><color>FF232323</color><width>0.737006</width></LineStyle><PolyStyle><fill>0</fill></PolyStyle></Style>
	<ExtendedData>
  <Data name="ID_interno"><value>SLC-086</value></Data>
  <Data name="ID_unidad"><value>SLC-086_1</value></Data>
  <Data name="Area"><value>5.0245</value></Data>
  <Data name="Latitud"><value>-0.874426</value></Data>
  <Data name="Longitud"><value>-79.634467</value></Data>
  <Data name="Perimetro"><value>2.5414</value></Data>
</ExtendedData>
      <MultiGeometry><Polygon><outerBoundaryIs><LinearRing><coordinates>-79.636559,-0.875645 -79.636559,-0.875645 -79.636582,-0.875841 -79.636674,-0.875908 -79.637032,-0.875875 -79.637356,-0.875712 -79.637694,-0.875525 -79.637648,-0.875358 -79.637252,-0.875129 -79.636932,-0.875225 -79.636865,-0.875084 -79.636867,-0.874838 -79.63679,-0.874639 -79.636563,-0.874214 -79.636471,-0.874051 -79.636372,-0.874039 -79.636245,-0.874269 -79.63593,-0.874261 -79.635732,-0.874059 -79.63542,-0.873805 -79.634617,-0.873361 -79.633372,-0.873108 -79.632255,-0.87347 -79.631955,-0.874289 -79.631711,-0.87414 -79.631821,-0.873962 -79.631967,-0.874053 -79.632211,-0.873462 -79.631894,-0.87338 -79.631514,-0.873813 -79.631264,-0.87402 -79.631501,-0.874706 -79.631767,-0.87451 -79.631976,-0.874478 -79.632357,-0.874433 -79.632782,-0.874834 -79.633037,-0.874984 -79.633556,-0.874933 -79.633744,-0.874925 -79.633783,-0.874882 -79.633608,-0.874632 -79.633498,-0.874613 -79.633291,-0.874705 -79.633006,-0.87453 -79.632723,-0.874246 -79.632419,-0.874169 -79.632352,-0.873953 -79.632469,-0.873727 -79.632813,-0.873533 -79.632998,-0.873568 -79.63308,-0.873512 -79.63328,-0.873343 -79.63353,-0.873329 -79.633621,-0.873406 -79.633734,-0.873581 -79.634116,-0.873639 -79.63426,-0.873726 -79.634458,-0.87392 -79.634854,-0.873795 -79.635162,-0.874047 -79.635158,-0.874235 -79.635391,-0.874399 -79.635618,-0.874416 -79.635863,-0.874523 -79.636189,-0.874955 -79.636398,-0.875018 -79.636463,-0.8751 -79.63657,-0.875261 -79.636603,-0.875428 -79.636559,-0.875645</coordinates></LinearRing></outerBoundaryIs></Polygon></MultiGeometry>
  </Placemark>
</Folder>
</Document></kml>
