<?xml version="1.0" encoding="utf-8" ?>
<kml xmlns="http://www.opengis.net/kml/2.2">
<Document id="root_doc">
<Schema name="polgonos_copiar" id="polgonos_copiar">
	<SimpleField name="DATOS" type="string"></SimpleField>
</Schema>
<Folder><name>polgonos_copiar</name>
  <Placemark>
    <description><![CDATA[
<table style="font-family:Arial;font-size:12px;width:100%;border-collapse:collapse;">
  <tr style="background:#9CBCE2;font-weight:bold;text-align:center;">
    <td colspan="2">SLC-081_1</td>
  </tr>
    <tr>
      <td>ID_interno</td>
      <td>SLC-081</td>
    </tr>
    <tr bgcolor="#D4E4F3">
      <td>ID_unidad </td>
      <td>SLC-081_1</td>
    </tr>
    <tr>
      <td>Area</td>
      <td>4.556</td>
    </tr>
    <tr bgcolor="#D4E4F3">
      <td>Latitud</td>
      <td>-0.975836</td>
    </tr>
    <tr>
      <td>Longitud</td>
      <td>-79.647685</td>
    </tr>
    <tr bgcolor="#D4E4F3">
      <td>Perimetro</td>
      <td>1.2771</td>
    </tr>
</table>
]]></description>
	<Style><LineStyle><color>FF232323</color><width>0.737006</width></LineStyle><PolyStyle><fill>0</fill></PolyStyle></Style>
	<ExtendedData>
  <Data name="ID_interno"><value>SLC-081</value></Data>
  <Data name="ID_unidad "><value>SLC-081_1</value></Data>
  <Data name="Area"><value>4.556</value></Data>
  <Data name="Latitud"><value>-0.975836</value></Data>
  <Data name="Longitud"><value>-79.647685</value></Data>
  <Data name="Perimetro"><value>1.2771</value></Data>
</ExtendedData>
      <MultiGeometry><Polygon><outerBoundaryIs><LinearRing><coordinates>-79.6468987470496,-0.976431141447141 -79.6471777042145,-0.976470224236632 -79.6472084935411,-0.976653757045698 -79.6474645160374,-0.976713116558162 -79.6474793685012,-0.976731532140734 -79.6475239366141,-0.976796272326814 -79.6475253963413,-0.976796043346879 -79.6476503772086,-0.976590778113418 -79.6481522062009,-0.975497470601502 -79.6500331464155,-0.972563205850711 -79.6493306361551,-0.972166762508927 -79.6473390244544,-0.975477243191259 -79.6469046584057,-0.976391491525112 -79.6468987470496,-0.976431141447141</coordinates></LinearRing></outerBoundaryIs></Polygon></MultiGeometry>
  </Placemark>
</Folder>
</Document></kml>
