<?xml version="1.0" encoding="utf-8" ?>
<kml xmlns="http://www.opengis.net/kml/2.2">
<Document id="root_doc">
<Schema name="veliz_carcamo_pablo_alfredo" id="veliz_carcamo_pablo_alfredo">
	<SimpleField name="AREA" type="float"></SimpleField>
	<SimpleField name="PRODUCTOR" type="string"></SimpleField>
	<SimpleField name="COMUNIDAD" type="string"></SimpleField>
	<SimpleField name="LOTE" type="string"></SimpleField>
</Schema>
<Folder><name>veliz_carcamo_pablo_alfredo</name>
  <Placemark>
	<Style><LineStyle><color>ff0000ff</color></LineStyle><PolyStyle><fill>0</fill></PolyStyle></Style>
	<ExtendedData><SchemaData schemaUrl="#veliz_carcamo_pablo_alfredo">
		<SimpleData name="AREA">0.100076147565298</SimpleData>
		<SimpleData name="PRODUCTOR">VELIZ CARCAMO PABLO ALFREDO</SimpleData>
		<SimpleData name="COMUNIDAD">SANTA LUCIA </SimpleData>
		<SimpleData name="LOTE">LOTE 4</SimpleData>
	</SchemaData></ExtendedData>
      <MultiGeometry><Polygon><outerBoundaryIs><LinearRing><coordinates>-79.47542739,-1.297440306 -79.4748098266068,-1.29741428039001 -79.4747883669693,-1.29753443159996 -79.47540214,-1.297581558 -79.47542739,-1.297440306</coordinates></LinearRing></outerBoundaryIs></Polygon></MultiGeometry>
  </Placemark>
</Folder>
</Document></kml>
