<?xml version="1.0" encoding="utf-8" ?>
<kml xmlns="http://www.opengis.net/kml/2.2">
<Document id="root_doc">
<Schema name="polgonos" id="polgonos">
	<SimpleField name="Has" type="float"></SimpleField>
	<SimpleField name="PROPIETARIO" type="string"></SimpleField>
	<SimpleField name="CODIGO" type="string"></SimpleField>
	<SimpleField name="CANTON" type="string"></SimpleField>
	<SimpleField name="PROVINCIA" type="string"></SimpleField>
</Schema>
<Folder><name>polgonos</name>
  <Placemark>
	<description><![CDATA[
<table style="font-family:Arial;font-size:12px;width:100%;border-collapse:collapse;">
  <tr style="background:#9CBCE2;font-weight:bold;text-align:center;">
    <td colspan="2">SLC-104_002</td>
  </tr>
    <tr>
      <td>ID_interno</td>
      <td>SLC-104</td>
    </tr>
    <tr bgcolor="#D4E4F3">
      <td>ID_unidad </td>
      <td>SLC-104_002</td>
    </tr>
    <tr>
      <td>Area</td>
      <td>0.636</td>
    </tr>
    <tr bgcolor="#D4E4F3">
      <td>Latitud</td>
      <td>-1.135639</td>
    </tr>
    <tr>
      <td>Longitud</td>
      <td>-79.606962</td>
    </tr>
    <tr bgcolor="#D4E4F3">
      <td>Perimetro</td>
      <td>0.3213</td>
    </tr>
</table>
]]></description>
	<Style><LineStyle><color>FF232323</color><width>0.737006</width></LineStyle><PolyStyle><fill>0</fill></PolyStyle></Style>
	<ExtendedData>
  <Data name="ID_interno"><value>SLC-104</value></Data>
  <Data name="ID_unidad "><value>SLC-104_002</value></Data>
  <Data name="Area"><value>0.636</value></Data>
  <Data name="Latitud"><value>-1.135639</value></Data>
  <Data name="Longitud"><value>-79.606962</value></Data>
  <Data name="Perimetro"><value>0.3213</value></Data>
</ExtendedData>
      <MultiGeometry><Polygon><outerBoundaryIs><LinearRing><coordinates>-79.6071092667064,-1.13528863461511 -79.6071092667064,-1.13528863461511 -79.606536892593,-1.13524042069517 -79.6066057776226,-1.13587900193955 -79.606623668245,-1.13604814439694 -79.6072526675424,-1.13606653882964 -79.6073506403699,-1.13600960544942 -79.6071092667064,-1.13528863461511</coordinates></LinearRing></outerBoundaryIs></Polygon></MultiGeometry>
  </Placemark>
</Folder>
</Document></kml>
