<?xml version="1.0" encoding="utf-8" ?>
<kml xmlns="http://www.opengis.net/kml/2.2">
<Document id="root_doc">
<Schema name="polgonos" id="polgonos">
	<SimpleField name="DATO" type="string"></SimpleField>
</Schema>
<Folder><name>polgonos</name>
  <Placemark>
    <description><![CDATA[
<table style="font-family:Arial;font-size:12px;width:100%;border-collapse:collapse;">
  <tr style="background:#9CBCE2;font-weight:bold;text-align:center;">
    <td colspan="2">SLC-083_1</td>
  </tr>
    <tr>
      <td>ID_interno</td>
      <td>SLC-083</td>
    </tr>
    <tr bgcolor="#D4E4F3">
      <td>ID_unidad </td>
      <td>SLC-083_1</td>
    </tr>
    <tr>
      <td>Area</td>
      <td>15.14</td>
    </tr>
    <tr bgcolor="#D4E4F3">
      <td>Latitud</td>
      <td>-1.19414</td>
    </tr>
    <tr>
      <td>Longitud</td>
      <td>-79.675933</td>
    </tr>
    <tr bgcolor="#D4E4F3">
      <td>Perimetro</td>
      <td>1.8418</td>
    </tr>
</table>
]]></description>
	<Style><LineStyle><color>FF232323</color><width>0.737006</width></LineStyle><PolyStyle><fill>0</fill></PolyStyle></Style>
	<ExtendedData>
  <Data name="ID_interno"><value>SLC-083</value></Data>
  <Data name="ID_unidad "><value>SLC-083_1</value></Data>
  <Data name="Area"><value>15.14</value></Data>
  <Data name="Latitud"><value>-1.19414</value></Data>
  <Data name="Longitud"><value>-79.675933</value></Data>
  <Data name="Perimetro"><value>1.8418</value></Data>
</ExtendedData>
      <MultiGeometry><Polygon><outerBoundaryIs><LinearRing><coordinates>-79.6781437394298,-1.19224147066505 -79.6781437394298,-1.19224147066505 -79.6744771007199,-1.19274620729406 -79.6747462296616,-1.1937050908008 -79.674225013368,-1.19373197242998 -79.6745758174171,-1.19495799516324 -79.675383682847,-1.1948993191361 -79.6754462356683,-1.19563198173811 -79.674574502214,-1.19576723086272 -79.6746746729561,-1.19619645718323 -79.6786647344997,-1.19531407853142 -79.6781437394298,-1.19224147066505</coordinates></LinearRing></outerBoundaryIs></Polygon></MultiGeometry>
  </Placemark>
</Folder>
</Document></kml>
