<?xml version="1.0" encoding="utf-8" ?>
<kml xmlns="http://www.opengis.net/kml/2.2">
<Document id="root_doc">
<Schema name="polgonos" id="polgonos">
	<SimpleField name="begin" type="int"></SimpleField>
	<SimpleField name="end" type="int"></SimpleField>
</Schema>
<Folder><name>polgonos</name>
  <Placemark>
	<Style><LineStyle><color>ff0000ff</color></LineStyle><PolyStyle><fill>0</fill></PolyStyle></Style>
	<ExtendedData><SchemaData schemaUrl="#polgonos">
		<SimpleData name="begin">1</SimpleData>
		<SimpleData name="end">19</SimpleData>
	</SchemaData></ExtendedData>
      <MultiGeometry><Polygon><outerBoundaryIs><LinearRing><coordinates>-79.62823,-0.890262 -79.628332,-0.890012 -79.6289,-0.888292 -79.628679,-0.888202 -79.628021,-0.888036 -79.627764,-0.888632 -79.627426,-0.889549 -79.627297,-0.890145 -79.626879,-0.891014 -79.626589,-0.89177 -79.627316,-0.892066 -79.627892,-0.892076 -79.628295,-0.892108 -79.629454,-0.889082 -79.629116,-0.888505 -79.62894,-0.888317 -79.62837,-0.890028 -79.62843,-0.890062 -79.628317,-0.890323 -79.62823,-0.890262</coordinates></LinearRing></outerBoundaryIs></Polygon></MultiGeometry>
  </Placemark>
</Folder>
</Document></kml>
