<?xml version="1.0" encoding="UTF-8"?>
<kml xmlns="http://www.opengis.net/kml/2.2">
<Document>
<name>SLC-113_1</name>
<Style id="sty"><LineStyle><color>ff10b981</color><width>2</width></LineStyle><PolyStyle><color>4f10b981</color></PolyStyle></Style>
<Placemark>
  <name>SLC-113_1</name>
  <description><![CDATA[
<table style="font-family:Arial;font-size:12px;width:100%;border-collapse:collapse;">
  <tr style="background:#9CBCE2;font-weight:bold;text-align:center;">
    <td colspan="2">SLC-113_1</td>
  </tr>
    <tr>
      <td>ID_interno</td>
      <td>SLC-113</td>
    </tr>
    <tr bgcolor="#D4E4F3">
      <td>ID_unidad</td>
      <td>SLC-113_1</td>
    </tr>
    <tr>
      <td>Area</td>
      <td>1.4022</td>
    </tr>
    <tr bgcolor="#D4E4F3">
      <td>Latitud</td>
      <td>-1.042188</td>
    </tr>
    <tr>
      <td>Longitud</td>
      <td>-79.593932</td>
    </tr>
    <tr bgcolor="#D4E4F3">
      <td>Perimetro</td>
      <td>0.5404</td>
    </tr>
</table>
]]></description>
  <ExtendedData>
  <Data name="ID_interno"><value>SLC-113</value></Data>
  <Data name="ID_unidad"><value>SLC-113_1</value></Data>
  <Data name="Area"><value>1.4022</value></Data>
  <Data name="Latitud"><value>-1.042188</value></Data>
  <Data name="Longitud"><value>-79.593932</value></Data>
  <Data name="Perimetro"><value>0.5404</value></Data>
</ExtendedData>
  <styleUrl>#sty</styleUrl>
  <Polygon><outerBoundaryIs><LinearRing><coordinates>-79.594148416694,-1.04157363807876,0 -79.594148416694,-1.04157363807876,0 -79.5935194117997,-1.0416185782684,0 -79.5934957265854,-1.043384665665422,0 -79.59412872791292,-1.0434034380153747,0 -79.594148416694,-1.04157363807876,0</coordinates></LinearRing></outerBoundaryIs></Polygon>
</Placemark>
</Document>
</kml>