<?xml version="1.0" encoding="utf-8" ?>
<kml xmlns="http://www.opengis.net/kml/2.2">
<Document id="root_doc">
<Schema name="polgonos" id="polgonos">
	<SimpleField name="ID_interno" type="string"></SimpleField>
	<SimpleField name="ID_unidad" type="string"></SimpleField>
	<SimpleField name="Area" type="float"></SimpleField>
	<SimpleField name="Latitud" type="float"></SimpleField>
	<SimpleField name="Longitud" type="float"></SimpleField>
</Schema>
<Folder><name>polgonos</name>
  <Placemark>
	<description><![CDATA[
<table style="font-family:Arial;font-size:12px;width:100%;border-collapse:collapse;">
  <tr style="background:#9CBCE2;font-weight:bold;text-align:center;">
    <td colspan="2">SLC-115_001</td>
  </tr>
    <tr>
      <td>ID_interno</td>
      <td>SLC-115</td>
    </tr>
    <tr bgcolor="#D4E4F3">
      <td>ID_unidad</td>
      <td>SLC-115_001</td>
    </tr>
    <tr>
      <td>Area</td>
      <td>0.9919</td>
    </tr>
    <tr bgcolor="#D4E4F3">
      <td>Latitud</td>
      <td>-1.008526</td>
    </tr>
    <tr>
      <td>Longitud</td>
      <td>-79.628966</td>
    </tr>
    <tr bgcolor="#D4E4F3">
      <td>Perimetro</td>
      <td>0.6364</td>
    </tr>
</table>
]]></description>
	<Style><LineStyle><color>ff0000ff</color></LineStyle><PolyStyle><fill>0</fill></PolyStyle></Style>
	<ExtendedData>
  <Data name="ID_interno"><value>SLC-115</value></Data>
  <Data name="ID_unidad"><value>SLC-115_001</value></Data>
  <Data name="Area"><value>0.9919</value></Data>
  <Data name="Latitud"><value>-1.008526</value></Data>
  <Data name="Longitud"><value>-79.628966</value></Data>
  <Data name="Perimetro"><value>0.6364</value></Data>
</ExtendedData>
      <MultiGeometry><Polygon><outerBoundaryIs><LinearRing><coordinates>-79.6298371485094,-1.00810423884616 -79.6298389471303,-1.00810062173485 -79.6274169904149,-1.00894527191335 -79.6274051571665,-1.00930795830028 -79.6294604507823,-1.00859068312348 -79.6298371485094,-1.00810423884616</coordinates></LinearRing></outerBoundaryIs></Polygon></MultiGeometry>
  </Placemark>
</Folder>
</Document></kml>
