<?xml version="1.0" encoding="UTF-8"?>
<kml xmlns="http://www.opengis.net/kml/2.2">
<Document>
<name>SLC-010_3</name>
<Style id="sty"><LineStyle><color>ff34d399</color><width>2</width></LineStyle><PolyStyle><color>4f34d399</color></PolyStyle></Style>
<Placemark>
  <name>SLC-010_3</name>
  <description><![CDATA[
<table style="font-family:Arial;font-size:12px;width:100%;border-collapse:collapse;">
  <tr style="background:#9CBCE2;font-weight:bold;text-align:center;">
    <td colspan="2">SLC-010_3</td>
  </tr>
    <tr>
      <td>ID_interno</td>
      <td>SLC-010</td>
    </tr>
    <tr bgcolor="#D4E4F3">
      <td>ID_unidad</td>
      <td>SLC-010_3</td>
    </tr>
    <tr>
      <td>Area</td>
      <td>7.2296</td>
    </tr>
    <tr bgcolor="#D4E4F3">
      <td>Latitud</td>
      <td>-0.891502</td>
    </tr>
    <tr>
      <td>Longitud</td>
      <td>-79.603934</td>
    </tr>
    <tr bgcolor="#D4E4F3">
      <td>Perimetro</td>
      <td>1.6142</td>
    </tr>
</table>
]]></description>
  <ExtendedData>
  <Data name="ID_interno"><value>SLC-010</value></Data>
  <Data name="ID_unidad"><value>SLC-010_3</value></Data>
  <Data name="Area"><value>7.2296</value></Data>
  <Data name="Latitud"><value>-0.891502</value></Data>
  <Data name="Longitud"><value>-79.603934</value></Data>
  <Data name="Perimetro"><value>1.6142</value></Data>
</ExtendedData>
  <styleUrl>#sty</styleUrl>
  <Polygon><outerBoundaryIs><LinearRing><coordinates>-79.60257951899996,-0.8914100079999798,0 -79.60258685199994,-0.8915908689999696,0 -79.60259194199995,-0.8917163899999423,0 -79.60259678499995,-0.8918358409999314,0 -79.60259734499994,-0.8918496339999251,0 -79.60262888599993,-0.8918471439999394,0 -79.60265059799997,-0.8918454299999325,0 -79.60266939399997,-0.8918439459999377,0 -79.60274892099994,-0.8918376669999475,0 -79.60283188099999,-0.8918311179999705,0 -79.60290038599999,-0.8918257089999315,0 -79.60290929899998,-0.8917240269999525,0 -79.60289253199994,-0.8916297919999465,0 -79.60287364699997,-0.8915236529999788,0 -79.60283226899998,-0.8914441339999257,0 -79.60280828599997,-0.8913980459999493,0 -79.60311254299995,-0.8913993009999785,0 -79.60312422999993,-0.8913993489999257,0 -79.60325594999995,-0.8913998919999244,0 -79.60323500699997,-0.8913080059999743,0 -79.60315456499995,-0.8909550829999375,0 -79.60314626299999,-0.8909186579999755,0 -79.60314349499998,-0.890906513999937,0 -79.60307823399995,-0.8906201929999611,0 -79.60306663299997,-0.8905692959999669,0 -79.60305934499996,-0.890537318999975,0 -79.60337239599994,-0.8905288769999515,0 -79.60340467099996,-0.8905280059999541,0 -79.60395892499997,-0.890513058999943,0 -79.60398644999998,-0.8905123169999456,0 -79.60447802699997,-0.8904990599999678,0 -79.60450676899995,-0.8904982849999783,0 -79.60470306599996,-0.8904929909999737,0 -79.60471449199997,-0.890492682999934,0 -79.60472978899998,-0.890492270999971,0 -79.60473396699996,-0.8904921579999723,0 -79.60483996099998,-0.8904892999999561,0 -79.60484893499995,-0.8904890569999679,0 -79.60527869499998,-0.8904774679999719,0 -79.60529931199994,-0.8904769119999401,0 -79.60549260599998,-0.8904716989999315,0 -79.60550702199998,-0.8904713099999526,0 -79.60575067299999,-0.8904647389999241,0 -79.60575180699999,-0.890481101999967,0 -79.60575661399997,-0.8905504739999515,0 -79.60576513799998,-0.8906734799999754,0 -79.60576691599994,-0.8906991439999388,0 -79.60579542499994,-0.8911105699999666,0 -79.60579683899994,-0.8911309679999704,0 -79.60582565699997,-0.8915468459999261,0 -79.60582656499997,-0.891559951999966,0 -79.60584327578546,-0.8919547066295705,0 -79.6058439463377,-0.8919835368825277,0 -79.6058513224125,-0.8921813258211676,0 -79.60585232824089,-0.8922051275401786,0 -79.60585266351701,-0.8922155198399848,0 -79.60583262699998,-0.8922152259999621,0 -79.60555632599994,-0.8922122179999405,0 -79.60552601299997,-0.892211887999963,0 -79.60551744999998,-0.8922117949999802,0 -79.60551055199994,-0.8922117199999775,0 -79.60550565299997,-0.8921247139999764,0 -79.60549823699995,-0.8920351319999327,0 -79.60549817799995,-0.892034419999959,0 -79.60549614599995,-0.8920098729999495,0 -79.60540495899994,-0.8920239949999313,0 -79.60537255299994,-0.8920290139999452,0 -79.60538595199995,-0.8921279259999437,0 -79.60538681299994,-0.8921342849999405,0 -79.60541987299996,-0.8921509239999637,0 -79.60542484199993,-0.8921534249999468,0 -79.60542907799999,-0.8922045819999767,0 -79.60542959599996,-0.8922108389999721,0 -79.60478039599997,-0.8922037729999488,0 -79.60474718699999,-0.892203411999958,0 -79.60389150599997,-0.8921940979999476,0 -79.60383643299997,-0.8921934989999727,0 -79.60318227099998,-0.892186378999952,0 -79.60311282499998,-0.8921856229999321,0 -79.60291856899994,-0.892183508999949,0 -79.60235227699997,-0.8921773449999364,0 -79.60230288599996,-0.892176807999931,0 -79.60211309599998,-0.892174741999952,0 -79.60150186899995,-0.8922231789999273,0 -79.60147160999998,-0.8922255769999765,0 -79.60115010699997,-0.891922339999951,0 -79.60113093699994,-0.8919042589999435,0 -79.60095126199997,-0.8917347919999656,0 -79.60084188299999,-0.8916288799999279,0 -79.60080108299996,-0.8915893729999311,0 -79.60125318699994,-0.8915471109999658,0 -79.60129878099997,-0.8915428489999613,0 -79.60170248099996,-0.8915051109999581,0 -79.60238702999999,-0.8914308809999625,0 -79.60257951899996,-0.8914100079999798,0</coordinates></LinearRing></outerBoundaryIs></Polygon>
</Placemark>
</Document>
</kml>