<?xml version="1.0" encoding="UTF-8"?>
<kml xmlns="http://www.opengis.net/kml/2.2" xmlns:gx="http://www.google.com/kml/ext/2.2" xmlns:xsi="http://www.w3.org/2001/XMLSchema-instance"
 xsi:schemaLocation="http://www.opengis.net/kml/2.2 http://schemas.opengis.net/kml/2.2.0/ogckml22.xsd http://www.google.com/kml/ext/2.2 http://code.google.com/apis/kml/schema/kml22gx.xsd">
<Document id="Arana_Zambrano_Jose_LOTE_2">
  <name>Arana Zambrano Jose LOTE 2</name>
  <Snippet></Snippet>
  <Style id="PolyStyle00">
    <LabelStyle>
      <color>00000000</color>
      <scale>0.000000</scale>
    </LabelStyle>
    <LineStyle>
      <color>ff6e6e6e</color>
      <width>0.400000</width>
    </LineStyle>
    <PolyStyle>
      <color>fff7becb</color>
      <outline>1</outline>
    </PolyStyle>
  </Style>
  <Folder id="FeatureLayer0">
    <name>Arana Zambrano Jose LOTE 2</name>
    <Snippet></Snippet>
    <Placemark id="ID_00000">
      <name></name>
      <Snippet></Snippet>
      <description><![CDATA[
<table style="font-family:Arial;font-size:12px;width:100%;border-collapse:collapse;">
  <tr style="background:#9CBCE2;font-weight:bold;text-align:center;">
    <td colspan="2">SLC-005_2</td>
  </tr>
    <tr>
      <td>ID_interno </td>
      <td>SLC-005</td>
    </tr>
    <tr bgcolor="#D4E4F3">
      <td>ID_unidad </td>
      <td>SLC-005_2</td>
    </tr>
    <tr>
      <td>Area</td>
      <td>1.4377</td>
    </tr>
    <tr bgcolor="#D4E4F3">
      <td>Latitud</td>
      <td>-1.145539</td>
    </tr>
    <tr>
      <td>Longitud</td>
      <td>-79.562154</td>
    </tr>
    <tr bgcolor="#D4E4F3">
      <td>Perimetro</td>
      <td>0.5376</td>
    </tr>
</table>
]]></description>
      <styleUrl>#PolyStyle00</styleUrl>
      <MultiGeometry>
        <Polygon>
          <extrude>0</extrude><altitudeMode>clampToGround</altitudeMode>
          <outerBoundaryIs><LinearRing><coordinates> -79.56284469799992,-1.145250332999971,0 -79.56284363346121,-1.145354052143094,0 -79.56283812499998,-1.145890739999974,0 -79.56235578099994,-1.146047728999983,0 -79.56098348799996,-1.145961103999959,0 -79.56107354099997,-1.145581970999922,0 -79.56145095499994,-1.145595760999928,0 -79.56184874699994,-1.145217680999951,0 -79.56245422871613,-1.145237531603809,0 -79.56284469799992,-1.145250332999971,0</coordinates></LinearRing></outerBoundaryIs>
        </Polygon>
      </MultiGeometry>
    
  <ExtendedData>
  <Data name="ID_interno "><value>SLC-005</value></Data>
  <Data name="ID_unidad "><value>SLC-005_2</value></Data>
  <Data name="Area"><value>1.4377</value></Data>
  <Data name="Latitud"><value>-1.145539</value></Data>
  <Data name="Longitud"><value>-79.562154</value></Data>
  <Data name="Perimetro"><value>0.5376</value></Data>
</ExtendedData>
</Placemark>
  </Folder>
</Document>
</kml>