<?xml version="1.0" encoding="utf-8" ?>
<kml xmlns="http://www.opengis.net/kml/2.2">
<Document id="root_doc">
<Schema name="polgonos" id="polgonos">
	<SimpleField name="Has" type="float"></SimpleField>
	<SimpleField name="PROPIETARIO" type="string"></SimpleField>
	<SimpleField name="CODIGO" type="string"></SimpleField>
</Schema>
<Folder><name>polgonos</name>
  <Placemark>
	<description><![CDATA[
<table style="font-family:Arial;font-size:12px;width:100%;border-collapse:collapse;">
  <tr style="background:#9CBCE2;font-weight:bold;text-align:center;">
    <td colspan="2">SLC-089_1</td>
  </tr>
    <tr>
      <td>ID_interno </td>
      <td>SLC-089</td>
    </tr>
    <tr bgcolor="#D4E4F3">
      <td>ID_unidad</td>
      <td>SLC-089_1</td>
    </tr>
    <tr>
      <td>Area</td>
      <td>3.0197</td>
    </tr>
    <tr bgcolor="#D4E4F3">
      <td>Latitud</td>
      <td>-1.170779</td>
    </tr>
    <tr>
      <td>Longitud</td>
      <td>-79.68519</td>
    </tr>
    <tr bgcolor="#D4E4F3">
      <td>Perimetro</td>
      <td>1.2008</td>
    </tr>
</table>
]]></description>
	<Style><LineStyle><color>FF232323</color><width>0.737006</width></LineStyle><PolyStyle><fill>0</fill></PolyStyle></Style>
	<ExtendedData>
  <Data name="ID_interno "><value>SLC-089</value></Data>
  <Data name="ID_unidad"><value>SLC-089_1</value></Data>
  <Data name="Area"><value>3.0197</value></Data>
  <Data name="Latitud"><value>-1.170779</value></Data>
  <Data name="Longitud"><value>-79.68519</value></Data>
  <Data name="Perimetro"><value>1.2008</value></Data>
</ExtendedData>
      <MultiGeometry><Polygon><outerBoundaryIs><LinearRing><coordinates>-79.6850031489469,-1.16922922549193 -79.6850031489469,-1.16922922549193 -79.6844673567362,-1.16918154059142 -79.6856279371195,-1.17413151185052 -79.6860366755139,-1.17367536378305 -79.6850031489469,-1.16922922549193</coordinates></LinearRing></outerBoundaryIs></Polygon></MultiGeometry>
  </Placemark>
</Folder>
</Document></kml>
