<?xml version="1.0" encoding="utf-8" ?>
<kml xmlns="http://www.opengis.net/kml/2.2">
<Document id="root_doc">
<Schema name="polgonos" id="polgonos">
	<SimpleField name="PROPIETARIO" type="string"></SimpleField>
	<SimpleField name="CODIGO" type="string"></SimpleField>
	<SimpleField name="Has" type="float"></SimpleField>
	<SimpleField name="CANTON" type="string"></SimpleField>
	<SimpleField name="PROVINCIA" type="string"></SimpleField>
</Schema>
<Folder><name>polgonos</name>
  <Placemark>
	<description><![CDATA[
<table style="font-family:Arial;font-size:12px;width:100%;border-collapse:collapse;">
  <tr style="background:#9CBCE2;font-weight:bold;text-align:center;">
    <td colspan="2">SLC-095_2</td>
  </tr>
    <tr>
      <td>ID_interno</td>
      <td>SLC-095</td>
    </tr>
    <tr bgcolor="#D4E4F3">
      <td>ID_unidad </td>
      <td>SLC-095_2</td>
    </tr>
    <tr>
      <td>Area</td>
      <td>1.497</td>
    </tr>
    <tr bgcolor="#D4E4F3">
      <td>Latitud</td>
      <td>-0.981215</td>
    </tr>
    <tr>
      <td>Longitud</td>
      <td>-79.579877</td>
    </tr>
    <tr bgcolor="#D4E4F3">
      <td>Perimetro</td>
      <td>0.5515</td>
    </tr>
</table>
]]></description>
	<Style><LineStyle><color>FF232323</color><width>0.737006</width></LineStyle><PolyStyle><fill>0</fill></PolyStyle></Style>
	<ExtendedData>
  <Data name="ID_interno"><value>SLC-095</value></Data>
  <Data name="ID_unidad "><value>SLC-095_2</value></Data>
  <Data name="Area"><value>1.497</value></Data>
  <Data name="Latitud"><value>-0.981215</value></Data>
  <Data name="Longitud"><value>-79.579877</value></Data>
  <Data name="Perimetro"><value>0.5515</value></Data>
</ExtendedData>
      <MultiGeometry><Polygon><outerBoundaryIs><LinearRing><coordinates>-79.5807162405952,-0.981112378777084 -79.5792967155171,-0.9807590372224 -79.5785417312239,-0.981283294701886 -79.5801139331406,-0.981808547398272 -79.5807162405952,-0.981112378777084</coordinates></LinearRing></outerBoundaryIs></Polygon></MultiGeometry>
  </Placemark>
</Folder>
</Document></kml>
