<?xml version="1.0" encoding="utf-8" ?>
<kml xmlns="http://www.opengis.net/kml/2.2">
<Document id="root_doc">
<Schema name="polgonos" id="polgonos">
	<SimpleField name="begin" type="string"></SimpleField>
	<SimpleField name="end" type="string"></SimpleField>
</Schema>
<Folder><name>polgonos</name>
  <Placemark>
    <description><![CDATA[
<table style="font-family:Arial;font-size:12px;width:100%;border-collapse:collapse;">
  <tr style="background:#9CBCE2;font-weight:bold;text-align:center;">
    <td colspan="2">SLC-113_2</td>
  </tr>
    <tr>
      <td>ID_interno</td>
      <td>SLC-113</td>
    </tr>
    <tr bgcolor="#D4E4F3">
      <td>ID_unidad</td>
      <td>SLC-113_2</td>
    </tr>
    <tr>
      <td>Area</td>
      <td>0.7989</td>
    </tr>
    <tr bgcolor="#D4E4F3">
      <td>Latitud</td>
      <td>-1.045673</td>
    </tr>
    <tr>
      <td>Longitud</td>
      <td>-79.590054</td>
    </tr>
    <tr bgcolor="#D4E4F3">
      <td>Perimetro</td>
      <td>0.4523</td>
    </tr>
</table>
]]></description>
	<Style><LineStyle><color>ff0000ff</color></LineStyle><PolyStyle><fill>0</fill></PolyStyle></Style>
	<ExtendedData>
  <Data name="ID_interno"><value>SLC-113</value></Data>
  <Data name="ID_unidad"><value>SLC-113_2</value></Data>
  <Data name="Area"><value>0.7989</value></Data>
  <Data name="Latitud"><value>-1.045673</value></Data>
  <Data name="Longitud"><value>-79.590054</value></Data>
  <Data name="Perimetro"><value>0.4523</value></Data>
</ExtendedData>
      <MultiGeometry><Polygon><outerBoundaryIs><LinearRing><coordinates>-79.5904016540644,-1.0451879560847 -79.5904016540644,-1.0451879560847 -79.5893949195284,-1.04599246379914 -79.5893227001935,-1.04674312667085 -79.590401407973,-1.04573967224056 -79.5904016540644,-1.0451879560847</coordinates></LinearRing></outerBoundaryIs></Polygon></MultiGeometry>
  </Placemark>
</Folder>
</Document></kml>
