<?xml version="1.0" encoding="UTF-8"?>
<kml xmlns="http://www.opengis.net/kml/2.2" xmlns:gx="http://www.google.com/kml/ext/2.2" xmlns:kml="http://www.opengis.net/kml/2.2" xmlns:atom="http://www.w3.org/2005/Atom">
<Document>
	<name>Luis Antonio Parraga Romero_Lote 1.kml</name>
	<atom:link rel="app" href="https://www.google.com/earth/about/versions/#earth-pro" title="Google Earth Pro 7.3.7.1094"></atom:link>
	<Style id="PolyStyle0037">
		<LabelStyle>
			<color>00000000</color>
			<scale>0</scale>
		</LabelStyle>
		<LineStyle>
			<color>ff000000</color>
		</LineStyle>
		<PolyStyle>
			<color>80beeaff</color>
		</PolyStyle>
	</Style>
	<Style id="PolyStyle0038">
		<LabelStyle>
			<color>00000000</color>
			<scale>0</scale>
		</LabelStyle>
		<LineStyle>
			<color>ff000000</color>
		</LineStyle>
		<PolyStyle>
			<color>80beeaff</color>
		</PolyStyle>
	</Style>
	<StyleMap id="PolyStyle0099">
		<Pair>
			<key>normal</key>
			<styleUrl>#PolyStyle0038</styleUrl>
		</Pair>
		<Pair>
			<key>highlight</key>
			<styleUrl>#PolyStyle0037</styleUrl>
		</Pair>
	</StyleMap>
	<Placemark id="ID_00000">
		<name>Luis Antonio Parraga Romero_Lote 1</name>
		<Snippet maxLines="0"></Snippet>
		<description><![CDATA[<html xmlns:fo="http://www.w3.org/1999/XSL/Format" xmlns:msxsl="urn:schemas-microsoft-com:xslt">

<head>

<META http-equiv="Content-Type" content="text/html">

<meta http-equiv="content-type" content="text/html; charset=UTF-8">

</head>

<body style="margin:0px 0px 0px 0px;overflow:auto;background:#FFFFFF;">

<table style="font-family:Arial,Verdana,Times;font-size:12px;text-align:left;width:100%;border-collapse:collapse;padding:3px 3px 3px 3px">

<tr style="text-align:center;font-weight:bold;background:#9CBCE2">

<td>1</td>

</tr>

<tr>

<td>

<table style="font-family:Arial,Verdana,Times;font-size:12px;text-align:left;width:100%;border-spacing:0px; padding:3px 3px 3px 3px">

<tr>

<td>Id</td>

<td>SLC</td>

</tr>

<tr bgcolor="#D4E4F3">

<td>Nombre</td>

<td>Luis Antonio Parraga Romero</td>

</tr>

<tr>

<td>Unidad</td>

<td>Cacao</td>

</tr>

<tr bgcolor="#D4E4F3">

<td>Detalle</td>

<td>Cacao CCN-51</td>

</tr>

<tr>

<td>Canton</td>

<td>El Empalme</td>

</tr>

<tr bgcolor="#D4E4F3">

<td>Recinto</td>

<td>Entrada La Caracas</td>

</tr>

<tr>

<td>Hectarea</td>

<td>0,81</td>

</tr>

<tr bgcolor="#D4E4F3">

<td>Latitud</td>

<td>-1,02276944</td>

</tr>

<tr>

<td>Longitud</td>

<td>-79,62868611</td>

</tr>

</table>

</td>

</tr>

</table>

</body>

</html>]]></description>
		<styleUrl>#PolyStyle0099</styleUrl>
		<Polygon>
			<outerBoundaryIs>
				<LinearRing>
					<coordinates>
						-79.62888008295126,-1.021650311668306,0 -79.62891722568318,-1.023154279841185,0 -79.62878566233191,-1.023183330103099,0 -79.62879100451484,-1.02330584352508,0 -79.6287281486442,-1.023303383310846,0 -79.62867501355423,-1.023192195489182,0 -79.62860492156629,-1.023201689064143,0 -79.6285710321047,-1.023321552303861,0 -79.62850533292857,-1.023336162592471,0 -79.62842219593077,-1.021830255268784,0 -79.62863460622071,-1.021753460232623,0 -79.62862586953462,-1.021853489144858,0 -79.62870583523591,-1.021834371193457,0 -79.62870581277167,-1.021722309812489,0 -79.62888008295126,-1.021650311668306,0 
					</coordinates>
				</LinearRing>
			</outerBoundaryIs>
		</Polygon>
	</Placemark>
</Document>
</kml>
