<?xml version="1.0" encoding="UTF-8"?>
<kml xmlns="http://www.opengis.net/kml/2.2" xmlns:gx="http://www.google.com/kml/ext/2.2" xmlns:kml="http://www.opengis.net/kml/2.2" xmlns:atom="http://www.w3.org/2005/Atom">
<Document>
	<name>Carreno Carreno Carlos Antonio Lote 2.kmz</name>
	<StyleMap id="PolyStyle00">
		<Pair>
			<key>normal</key>
			<styleUrl>#PolyStyle001</styleUrl>
		</Pair>
		<Pair>
			<key>highlight</key>
			<styleUrl>#PolyStyle000</styleUrl>
		</Pair>
	</StyleMap>
	<Style id="PolyStyle000">
		<LabelStyle>
			<color>00000000</color>
			<scale>0</scale>
		</LabelStyle>
		<LineStyle>
			<color>ff5f0078</color>
		</LineStyle>
		<PolyStyle>
			<color>4dfcc5f9</color>
		</PolyStyle>
	</Style>
	<Style id="PolyStyle001">
		<LabelStyle>
			<color>00000000</color>
			<scale>0</scale>
		</LabelStyle>
		<LineStyle>
			<color>ff5f0078</color>
		</LineStyle>
		<PolyStyle>
			<color>4dfcc5f9</color>
		</PolyStyle>
	</Style>
	<Placemark id="ID_00000">
		<name>Carreno Carreno Carlos Antonio Lote 2</name>
		<Snippet maxLines="0"></Snippet>
		<description><![CDATA[
<table style="font-family:Arial;font-size:12px;width:100%;border-collapse:collapse;">
  <tr style="background:#9CBCE2;font-weight:bold;text-align:center;">
    <td colspan="2">SLC-010_2</td>
  </tr>
    <tr>
      <td>ID_interno </td>
      <td>SLC-010</td>
    </tr>
    <tr bgcolor="#D4E4F3">
      <td>ID_unidad </td>
      <td>SLC-010_2</td>
    </tr>
    <tr>
      <td>Area</td>
      <td>5.0943</td>
    </tr>
    <tr bgcolor="#D4E4F3">
      <td>Latitud</td>
      <td>-0.891573</td>
    </tr>
    <tr>
      <td>Longitud</td>
      <td>-79.607284</td>
    </tr>
    <tr bgcolor="#D4E4F3">
      <td>Perimetro</td>
      <td>1.1269</td>
    </tr>
</table>
]]></description>
		<styleUrl>#PolyStyle00</styleUrl>
		<gx:balloonVisibility>1</gx:balloonVisibility>
		<MultiGeometry>
			<Polygon>
				<outerBoundaryIs>
					<LinearRing>
						<coordinates>
							-79.60880245452537,-0.8915435781101062,0 -79.60888775078067,-0.8923093889371405,0 -79.60588253095096,-0.8930453044048177,0 -79.60579791613696,-0.8904703456783675,0 -79.60634938006751,-0.8906715722128827,0 -79.60646320750088,-0.8914278209168131,0 -79.60880245452537,-0.8915435781101062,0 
						</coordinates>
					</LinearRing>
				</outerBoundaryIs>
			</Polygon>
		</MultiGeometry>
		<atom:link rel="app" href="https://www.google.com/earth/about/versions/#earth-pro" title="Google Earth Pro 7.3.6.10441"></atom:link>
	
  <ExtendedData>
  <Data name="ID_interno "><value>SLC-010</value></Data>
  <Data name="ID_unidad "><value>SLC-010_2</value></Data>
  <Data name="Area"><value>5.0943</value></Data>
  <Data name="Latitud"><value>-0.891573</value></Data>
  <Data name="Longitud"><value>-79.607284</value></Data>
  <Data name="Perimetro"><value>1.1269</value></Data>
</ExtendedData>
</Placemark>
</Document>
</kml>
