<?xml version="1.0" encoding="UTF-8"?>
<kml xmlns="http://www.opengis.net/kml/2.2">
<Document>
<name>LOTE 1.kml</name>
<Style id="sty"><LineStyle><color>ff34d399</color><width>2</width></LineStyle><PolyStyle><color>4f34d399</color></PolyStyle></Style>
<Placemark>
  <name>LOTE 1.kml</name>
  <description><![CDATA[
<table style="font-family:Arial;font-size:12px;width:100%;border-collapse:collapse;">
  <tr style="background:#9CBCE2;font-weight:bold;text-align:center;">
    <td colspan="2">SLC-104_1</td>
  </tr>
    <tr>
      <td>ID_interno </td>
      <td>SLC-104</td>
    </tr>
    <tr bgcolor="#D4E4F3">
      <td>ID_unidad</td>
      <td>SLC-104_1</td>
    </tr>
    <tr>
      <td>Area</td>
      <td>0.7543</td>
    </tr>
    <tr bgcolor="#D4E4F3">
      <td>Latitud</td>
      <td>-1.133373</td>
    </tr>
    <tr>
      <td>Longitud</td>
      <td>-79.608063</td>
    </tr>
    <tr bgcolor="#D4E4F3">
      <td>Perimetro</td>
      <td>0.3679</td>
    </tr>
</table>
]]></description>
  <ExtendedData>
  <Data name="ID_interno "><value>SLC-104</value></Data>
  <Data name="ID_unidad"><value>SLC-104_1</value></Data>
  <Data name="Area"><value>0.7543</value></Data>
  <Data name="Latitud"><value>-1.133373</value></Data>
  <Data name="Longitud"><value>-79.608063</value></Data>
  <Data name="Perimetro"><value>0.3679</value></Data>
</ExtendedData>
  <styleUrl>#sty</styleUrl>
  <Polygon><outerBoundaryIs><LinearRing><coordinates>-79.6086558748083,-1.13310059223149,0 -79.6086558748083,-1.13310059223149,0 -79.6077581219086,-1.13324487153935,0 -79.6077033040726,-1.13325388960809,0 -79.6076404119564,-1.13323576999565,0 -79.6076421624672,-1.13333345242496,0 -79.6076430286488,-1.13340128727624,0 -79.6076499921778,-1.13387251383524,0 -79.6079663247473,-1.13380664143938,0 -79.60871726274492,-1.1336488375063463,0 -79.6086558748083,-1.13310059223149,0</coordinates></LinearRing></outerBoundaryIs></Polygon>
</Placemark>
</Document>
</kml>