<?xml version="1.0" encoding="utf-8" ?>
<kml xmlns="http://www.opengis.net/kml/2.2">
<Document id="root_doc">
<Schema name="veliz_carcamo_pablo_alfredo" id="veliz_carcamo_pablo_alfredo">
	<SimpleField name="AREA" type="float"></SimpleField>
	<SimpleField name="PRODUCTOR" type="string"></SimpleField>
	<SimpleField name="COMUNIDAD" type="string"></SimpleField>
	<SimpleField name="LOTE" type="string"></SimpleField>
</Schema>
<Folder><name>veliz_carcamo_pablo_alfredo</name>
  <Placemark>
	<Style><LineStyle><color>ff0000ff</color></LineStyle><PolyStyle><fill>0</fill></PolyStyle></Style>
	<ExtendedData><SchemaData schemaUrl="#veliz_carcamo_pablo_alfredo">
		<SimpleData name="AREA">1.23272381086611</SimpleData>
		<SimpleData name="PRODUCTOR">VELIZ CARCAMO PABLO ALFREDOVELIZ CARCAMO PABLO ALFREDO</SimpleData>
		<SimpleData name="COMUNIDAD">SANTA LUCIA </SimpleData>
		<SimpleData name="LOTE">LOTE 2</SimpleData>
	</SchemaData></ExtendedData>
      <MultiGeometry><Polygon><outerBoundaryIs><LinearRing><coordinates>-79.4767782111651,-1.29903726526012 -79.4768030027085,-1.29909146102395 -79.4768103666486,-1.29913416521367 -79.4767287606301,-1.29918965215983 -79.4766377542115,-1.29924952480365 -79.4765669827644,-1.29935680563404 -79.4764849041139,-1.299485154325 -79.4763575502384,-1.29967342312195 -79.4762186457047,-1.29981711746714 -79.47601268381,-1.29987699011097 -79.475232,-1.299876 -79.47526169,-1.299398331 -79.47527972,-1.299289814 -79.47549539,-1.299280901 -79.4755315,-1.299000557 -79.47646601,-1.299037301 -79.4767782111651,-1.29903726526012</coordinates></LinearRing></outerBoundaryIs></Polygon></MultiGeometry>
  </Placemark>
</Folder>
</Document></kml>
