<?xml version="1.0" encoding="utf-8" ?>
<kml xmlns="http://www.opengis.net/kml/2.2">
<Document id="root_doc">
<Schema name="polgonos" id="polgonos">
	<SimpleField name="begin" type="int"></SimpleField>
	<SimpleField name="end" type="int"></SimpleField>
</Schema>
<Folder><name>polgonos</name>
  <Placemark>
	<Style><LineStyle><color>ff0000ff</color></LineStyle><PolyStyle><fill>0</fill></PolyStyle></Style>
	<ExtendedData><SchemaData schemaUrl="#polgonos">
		<SimpleData name="begin">1</SimpleData>
		<SimpleData name="end">10</SimpleData>
	</SchemaData></ExtendedData>
      <MultiGeometry><Polygon><outerBoundaryIs><LinearRing><coordinates>-79.614256,-1.009206 -79.612546,-1.010151 -79.611295,-1.010786 -79.611476,-1.011306 -79.611613,-1.011469 -79.614189,-1.009835 -79.615011,-1.009381 -79.615671,-1.009048 -79.616454,-1.008587 -79.616092,-1.00817 -79.614256,-1.009206</coordinates></LinearRing></outerBoundaryIs></Polygon></MultiGeometry>
  </Placemark>
</Folder>
</Document></kml>
