<?xml version="1.0" encoding="utf-8" ?>
<kml xmlns="http://www.opengis.net/kml/2.2">
<Document id="root_doc">
<Schema name="polgonos" id="polgonos">
	<SimpleField name="PROPIETARIO" type="string"></SimpleField>
	<SimpleField name="CODIGO" type="string"></SimpleField>
	<SimpleField name="Has" type="float"></SimpleField>
</Schema>
<Folder><name>polgonos</name>
  <Placemark>
	<description><![CDATA[
<table style="font-family:Arial;font-size:12px;width:100%;border-collapse:collapse;">
  <tr style="background:#9CBCE2;font-weight:bold;text-align:center;">
    <td colspan="2">SLC-088_1</td>
  </tr>
    <tr>
      <td>ID_interno </td>
      <td>SLC-088</td>
    </tr>
    <tr bgcolor="#D4E4F3">
      <td>ID_unidad</td>
      <td>SLC-088_1</td>
    </tr>
    <tr>
      <td>Area</td>
      <td>3.2772</td>
    </tr>
    <tr bgcolor="#D4E4F3">
      <td>Latitud</td>
      <td>-0.887402</td>
    </tr>
    <tr>
      <td>Longitud</td>
      <td>-79.626231</td>
    </tr>
    <tr bgcolor="#D4E4F3">
      <td>Perimetro</td>
      <td>2.147</td>
    </tr>
</table>
]]></description>
	<Style><LineStyle><color>FF232323</color><width>0.737006</width></LineStyle><PolyStyle><fill>0</fill></PolyStyle></Style>
	<ExtendedData>
  <Data name="ID_interno "><value>SLC-088</value></Data>
  <Data name="ID_unidad"><value>SLC-088_1</value></Data>
  <Data name="Area"><value>3.2772</value></Data>
  <Data name="Latitud"><value>-0.887402</value></Data>
  <Data name="Longitud"><value>-79.626231</value></Data>
  <Data name="Perimetro"><value>2.147</value></Data>
</ExtendedData>
      <MultiGeometry><Polygon><outerBoundaryIs><LinearRing><coordinates>-79.6272350442846,-0.884417189222636 -79.6272350442846,-0.884417189222636 -79.6269385355605,-0.884408034130491 -79.6242306771707,-0.893352200820806 -79.6245092023229,-0.893397529134774 -79.6272350442846,-0.884417189222636</coordinates></LinearRing></outerBoundaryIs></Polygon></MultiGeometry>
  </Placemark>
</Folder>
</Document></kml>
