<?xml version="1.0" encoding="UTF-8"?>
<kml xmlns="http://www.opengis.net/kml/2.2" xmlns:gx="http://www.google.com/kml/ext/2.2" xmlns:xsi="http://www.w3.org/2001/XMLSchema-instance"
 xsi:schemaLocation="http://www.opengis.net/kml/2.2 http://schemas.opengis.net/kml/2.2.0/ogckml22.xsd http://www.google.com/kml/ext/2.2 http://code.google.com/apis/kml/schema/kml22gx.xsd">
<Document id="Arana_Zambrano_Jose_LOTE_1">
  <name>Arana Zambrano Jose LOTE 1</name>
  <Snippet></Snippet>
  <Style id="PolyStyle00">
    <LabelStyle>
      <color>00000000</color>
      <scale>0.000000</scale>
    </LabelStyle>
    <LineStyle>
      <color>ff6e6e6e</color>
      <width>0.400000</width>
    </LineStyle>
    <PolyStyle>
      <color>ffccfcf8</color>
      <outline>1</outline>
    </PolyStyle>
  </Style>
  <Folder id="FeatureLayer0">
    <name>Arana Zambrano Jose LOTE 1</name>
    <Snippet></Snippet>
    <Placemark id="ID_00000">
      <name></name>
      <Snippet></Snippet>
      <description><![CDATA[
<table style="font-family:Arial;font-size:12px;width:100%;border-collapse:collapse;">
  <tr style="background:#9CBCE2;font-weight:bold;text-align:center;">
    <td colspan="2">SLC-005_1</td>
  </tr>
    <tr>
      <td>ID_interno </td>
      <td>SLC-005</td>
    </tr>
    <tr bgcolor="#D4E4F3">
      <td>ID_unidad </td>
      <td>SLC-005_1</td>
    </tr>
    <tr>
      <td>Area</td>
      <td>3.1339</td>
    </tr>
    <tr bgcolor="#D4E4F3">
      <td>Latitud</td>
      <td>-1.148127</td>
    </tr>
    <tr>
      <td>Longitud</td>
      <td>-79.559692</td>
    </tr>
    <tr bgcolor="#D4E4F3">
      <td>Perimetro</td>
      <td>0.9953</td>
    </tr>
</table>
]]></description>
      <styleUrl>#PolyStyle00</styleUrl>
      <MultiGeometry>
        <Polygon>
          <extrude>0</extrude><altitudeMode>clampToGround</altitudeMode>
          <outerBoundaryIs><LinearRing><coordinates> -79.5607740467578,-1.147792738229651,0 -79.56094986299993,-1.14825913399989,0 -79.56092503032161,-1.148328460236355,0 -79.56062360599996,-1.149169955999973,0 -79.55933719699993,-1.148773307999917,0 -79.55913510099997,-1.148615327999922,0 -79.55890160399997,-1.14850989499996,0 -79.55897661099993,-1.14839517399996,0 -79.55915721899997,-1.148456752999939,0 -79.55921455299995,-1.148311311999968,0 -79.55902517299994,-1.148240765999928,0 -79.55905607499992,-1.148156929999937,0 -79.55892373999994,-1.148099449999927,0 -79.55876908399995,-1.148090418999977,0 -79.55955403913225,-1.147137721366082,0 -79.55994001699996,-1.147471198999937,0 -79.55967207299994,-1.147895951999946,0 -79.55953125099995,-1.148139539999872,0 -79.55962351099997,-1.148218808999946,0 -79.55969840099992,-1.148196796999966,0 -79.55980784499997,-1.148061294999898,0 -79.55963971299997,-1.147982796999879,0 -79.55995845999995,-1.147485279999949,0 -79.56032692737145,-1.147589182898611,0 -79.5607740467578,-1.147792738229651,0</coordinates></LinearRing></outerBoundaryIs>
        </Polygon>
      </MultiGeometry>
    
  <ExtendedData>
  <Data name="ID_interno "><value>SLC-005</value></Data>
  <Data name="ID_unidad "><value>SLC-005_1</value></Data>
  <Data name="Area"><value>3.1339</value></Data>
  <Data name="Latitud"><value>-1.148127</value></Data>
  <Data name="Longitud"><value>-79.559692</value></Data>
  <Data name="Perimetro"><value>0.9953</value></Data>
</ExtendedData>
</Placemark>
  </Folder>
</Document>
</kml>