<?xml version="1.0" encoding="UTF-8"?>
<kml xmlns="http://www.opengis.net/kml/2.2">
<Document>
<name>SLC-159_2</name>
<Style id="sty"><LineStyle><color>ff10b981</color><width>2</width></LineStyle><PolyStyle><color>4f10b981</color></PolyStyle></Style>
<Placemark>
  <name>SLC-159_2</name>
  <description><![CDATA[
<table style="font-family:Arial;font-size:12px;width:100%;border-collapse:collapse;">
  <tr style="background:#9CBCE2;font-weight:bold;text-align:center;">
    <td colspan="2">SLC-159_1</td>
  </tr>
    <tr>
      <td>ID_interno </td>
      <td>SLC-159</td>
    </tr>
    <tr bgcolor="#D4E4F3">
      <td>ID_unidad</td>
      <td>SLC-159_1</td>
    </tr>
    <tr>
      <td>Area</td>
      <td>2.4053</td>
    </tr>
    <tr bgcolor="#D4E4F3">
      <td>Latitud</td>
      <td>-1.002104</td>
    </tr>
    <tr>
      <td>Longitud</td>
      <td>-79.620753</td>
    </tr>
    <tr bgcolor="#D4E4F3">
      <td>Perimetro</td>
      <td>1.2167</td>
    </tr>
</table>
]]></description>
  <ExtendedData>
  <Data name="ID_interno "><value>SLC-159</value></Data>
  <Data name="ID_unidad"><value>SLC-159_1</value></Data>
  <Data name="Area"><value>2.4053</value></Data>
  <Data name="Latitud"><value>-1.002104</value></Data>
  <Data name="Longitud"><value>-79.620753</value></Data>
  <Data name="Perimetro"><value>1.2167</value></Data>
</ExtendedData>
  <styleUrl>#sty</styleUrl>
  <Polygon><outerBoundaryIs><LinearRing><coordinates>-79.6217648684978,-1.00171916258136,0 -79.6215636367185,-1.00165743863385,0 -79.6213281893986,-1.00158427775533,0 -79.6210685634286,-1.00150397945045,0 -79.6207947956992,-1.00142084322391,0 -79.6205169231009,-1.00133916858036,0 -79.6202449825242,-1.00126325502449,0 -79.6199890108598,-1.00119740206098,0 -79.619759044998,-1.00114590919448,0 -79.6195651218295,-1.00111307592969,0 -79.6195355243068,-1.00111876773677,0 -79.6195024350982,-1.00114023357144,0 -79.6194681908362,-1.00117367105078,0 -79.6194351281536,-1.00121527779185,0 -79.6194055836829,-1.0012612514117,0 -79.6193818940567,-1.00130778952742,0 -79.6193663959077,-1.00135108975605,0 -79.6193614258684,-1.00138734971467,0 -79.6193693205714,-1.00141276702034,0 -79.6194380674904,-1.0014777871288,0 -79.6195384049189,-1.00154830547274,0 -79.6196610392573,-1.00162293687171,0 -79.6197966769061,-1.00170029614524,0 -79.6199360242659,-1.00177899811287,0 -79.6200697877371,-1.00185765759412,0 -79.6201886737202,-1.00193488940854,0 -79.6202833886159,-1.00200930837566,0 -79.6203446388245,-1.00207952931503,0 -79.6203517856772,-1.00212294100405,0 -79.6203353864908,-1.00218121440768,0 -79.6203020924643,-1.0022499895652,0 -79.620258554797,-1.0023249065159,0 -79.6202114246881,-1.00240160529907,0 -79.6201673533367,-1.00247572595397,0 -79.620132991942,-1.00254290851992,0 -79.6201149917032,-1.00259879303617,0 -79.6201200038195,-1.00263901954203,0 -79.62013173848392,-1.0026507524097594,0 -79.62014749646187,-1.0026453888130922,0 -79.62017968297005,-1.0026296332478162,0 -79.6202001348138,-1.002617900380012,0 -79.62022695690396,-1.002600803915426,0 -79.62024707347156,-1.0025870596987332,0 -79.62026484310627,-1.002577338179563,0 -79.6202812716365,-1.0025629235131772,0 -79.62030407041311,-1.0025431452498823,0 -79.62032753974201,-1.0025233669864604,0 -79.62034765630962,-1.0025062705213783,0 -79.62036877870561,-1.002485486583321,0 -79.62039023637773,-1.0024670492188017,0 -79.62041437625886,-1.0024445891564164,0 -79.62043583393098,-1.0024281631405567,0 -79.6204572916031,-1.0024127427990521,0 -79.62047539651395,-1.0023912884107675,0 -79.62049417197706,-1.0023741919449984,0 -79.62051797658206,-1.002355084130201,0 -79.62054479867221,-1.0023346354160043,0 -79.62056893855335,-1.0023111696782459,0 -79.62059676647188,-1.0022887096148045,0 -79.6206296235323,-1.0022645734270348,0 -79.6206571161747,-1.0022397667894447,0 -79.62068796157838,-1.0022149601516512,0 -79.62071713060142,-1.0021904887385198,0 -79.62078016251327,-1.0021284721427637,0 -79.62081469595432,-1.0020983019065728,0 -79.62082240730524,-1.0020718191434586,0 -79.62082911282779,-1.0020503647529349,0 -79.62084252387287,-1.0020389671079097,0 -79.62086029350758,-1.002026899013128,0 -79.6208767220378,-1.0020188536165942,0 -79.62089180946352,-1.0020121491194593,0 -79.62089549750091,-1.0019947174268526,0 -79.62092868983747,-1.001989353829104,0 -79.62097495794298,-1.0019722573612357,0 -79.62101049721242,-1.0019658880888647,0 -79.6210591122508,-1.0019595188164938,0 -79.62109599262477,-1.001952479094366,0 -79.62112314999105,-1.0019481211711507,0 -79.62115064263345,-1.0019280076792754,0 -79.62118685245515,-1.0019115816608202,0 -79.6212210506201,-1.0018998487904462,0 -79.62127871811391,-1.0018800705231439,0 -79.62128274142744,-1.0018136959981168,0 -79.62123312056065,-1.00176006001731,0 -79.62117411196233,-1.00173592382566,0 -79.62117746472359,-1.0016440722058182,0 -79.6212411671877,-1.0016092088165847,0 -79.62132230401039,-1.0016360268083302,0 -79.62138868868351,-1.001670890197271,0 -79.62138935923578,-1.0017211739306808,0 -79.62138198316097,-1.0017634122661319,0 -79.62137125432493,-1.0018110141990897,0 -79.62136320769787,-1.0018559343323845,0 -79.62135650217533,-1.001913593010027,0 -79.62130453437567,-1.0019192918327111,0 -79.62125055491926,-1.0019363883009038,0 -79.62121065706015,-1.0019420871235944,0 -79.62119020521641,-1.0019575074673126,0 -79.62115734815599,-1.0019608597159435,0 -79.62114963680507,-1.0019709164617858,0 -79.62113220244647,-1.0019725925861014,0 -79.62109699845314,-1.0019742687104043,0 -79.62105810642244,-1.0019786266335813,0 -79.62099507451059,-1.0019890186042384,0 -79.62096389383079,-1.0020004162494414,0 -79.62093807756902,-1.0020215354154431,0 -79.62091494351627,-1.00204667727954,0 -79.6208941563964,-1.0020637737470266,0 -79.62087571620943,-1.0020758418416682,0 -79.62084989994764,-1.0020912621847502,0 -79.62082844227554,-1.0021093643265413,0 -79.62081838399173,-1.002126125568844,0 -79.62072886526586,-1.0022146249268238,0 -79.62070740759374,-1.0022303804940844,0 -79.62067455053331,-1.0022602155042393,0 -79.620642028749,-1.0022903857389418,0 -79.62060682475568,-1.002315862825805,0 -79.62057799100876,-1.002336311540129,0 -79.62055049836636,-1.0023614534018086,0 -79.62052434682847,-1.0023819021158398,0 -79.62049886584283,-1.0023963167830399,0 -79.6204810962081,-1.002415424597583,0 -79.62046701461078,-1.0024298392646305,0 -79.62044589221478,-1.002450623203044,0 -79.62042208760977,-1.0024660435443575,0 -79.6203972771764,-1.0024858218081358,0 -79.6203774958849,-1.0025042591725406,0 -79.62035167962314,-1.0025206851880186,0 -79.62032720446588,-1.0025394577770472,0 -79.62030809372665,-1.0025575599163574,0 -79.62028730660678,-1.0025770029547738,0 -79.62026283144951,-1.0025957755434718,0 -79.62023768574002,-1.0026148833568571,0 -79.6202038228512,-1.0026360025188894,0 -79.62016928941013,-1.0026507524097594,0 -79.6201501786709,-1.0026671784244994,0 -79.6201619814978,-1.00268506381473,0 -79.6202320566823,-1.00273683936317,0 -79.6203226705867,-1.00279071192704,0 -79.6204262644249,-1.00284304724602,0 -79.6205352794107,-1.00289021105981,0 -79.6206421567578,-1.0029285691081,0 -79.62073933768,-1.00295448713058,0 -79.6208192633911,-1.00296433086694,0 -79.6208743751049,-1.00295446605687,0 -79.6209120192345,-1.00291233556639,0 -79.6209413796888,-1.00283636183744,0 -79.6209648151793,-1.00273565001988,0 -79.620984684417,-1.00261930526357,0 -79.6210033461132,-1.00249643271838,0 -79.6210231589791,-1.00237613753415,0 -79.6210464817259,-1.00226752486075,0 -79.6210756730649,-1.00217969984803,0 -79.6211130917072,-1.00212176764586,0 -79.6211565428126,-1.00209961031647,0 -79.6212197539556,-1.00209084148892,0 -79.6212973443549,-1.00209201741799,0 -79.6213839332296,-1.00209969435845,0 -79.6214741397984,-1.00211042856508,0 -79.6215625832803,-1.00212077629267,0 -79.6216438828942,-1.00212729379599,0 -79.6217126578589,-1.00212653732982,0 -79.6217635273933,-1.00211506314894,0 -79.6217817949827,-1.00209956504577,0 -79.6217967456049,-1.0020728280848,0 -79.6218086937402,-1.00203755815072,0 -79.6218179538685,-1.00199646112823,0 -79.62182484047,-1.00195224290201,0 -79.6218296680247,-1.00190760935675,0 -79.6218327510126,-1.00186526637716,0 -79.6218344039138,-1.00182791984792,0 -79.6218349412084,-1.00179827565372,0 -79.621833386834,-1.00178941171848,0 -79.621829025665,-1.00177936453738,0 -79.6218223929543,-1.00176864910087,0 -79.6218140239554,-1.00175778039935,0 -79.6218044539214,-1.00174727342324,0 -79.6217942181054,-1.00173764316297,0 -79.6217838517607,-1.00172940460895,0 -79.6217738901404,-1.00172307275161,0 -79.6217648684978,-1.00171916258136,0</coordinates></LinearRing></outerBoundaryIs></Polygon>
</Placemark>
</Document>
</kml>