<?xml version="1.0" encoding="utf-8" ?>
<kml xmlns="http://www.opengis.net/kml/2.2">
<Document id="root_doc">
<Schema name="lote_1_veliz" id="lote_1_veliz">
	<SimpleField name="ID_interno" type="string"></SimpleField>
	<SimpleField name="ID_unidad" type="string"></SimpleField>
	<SimpleField name="Area" type="float"></SimpleField>
	<SimpleField name="Latitud" type="float"></SimpleField>
	<SimpleField name="Longitud" type="float"></SimpleField>
</Schema>
<Folder><name>lote_1_veliz</name>
  <Placemark>
    <description><![CDATA[
<table style="font-family:Arial;font-size:12px;width:100%;border-collapse:collapse;">
  <tr style="background:#9CBCE2;font-weight:bold;text-align:center;">
    <td colspan="2">SLC-189_1</td>
  </tr>
    <tr>
      <td>ID_interno</td>
      <td>SLC-189</td>
    </tr>
    <tr bgcolor="#D4E4F3">
      <td>ID_unidad</td>
      <td>SLC-189_1</td>
    </tr>
    <tr>
      <td>Area</td>
      <td>2.1254</td>
    </tr>
    <tr bgcolor="#D4E4F3">
      <td>Latitud</td>
      <td>-1.168394</td>
    </tr>
    <tr>
      <td>Longitud</td>
      <td>-79.804355</td>
    </tr>
    <tr bgcolor="#D4E4F3">
      <td>Perimetro</td>
      <td>0.6206</td>
    </tr>
</table>
]]></description>
	<Style><LineStyle><color>ff0000ff</color></LineStyle><PolyStyle><fill>0</fill></PolyStyle></Style>
	<ExtendedData>
  <Data name="ID_interno"><value>SLC-189</value></Data>
  <Data name="ID_unidad"><value>SLC-189_1</value></Data>
  <Data name="Area"><value>2.1254</value></Data>
  <Data name="Latitud"><value>-1.168394</value></Data>
  <Data name="Longitud"><value>-79.804355</value></Data>
  <Data name="Perimetro"><value>0.6206</value></Data>
</ExtendedData>
      <MultiGeometry><Polygon><outerBoundaryIs><LinearRing><coordinates>-79.8044510281432,-1.16735723108586,0 -79.8043054080723,-1.1675995918291,0 -79.8039697545069,-1.16817373464515,0 -79.8035629751836,-1.1690195442479,0 -79.8037376561965,-1.16910843355213,0 -79.8039309862341,-1.16918952802566,0 -79.8041656374558,-1.16934897488796,0 -79.8043585439626,-1.1695051956327,0 -79.8046642984788,-1.16886000333513,0 -79.8050170573884,-1.16821690920052,0 -79.8051963701147,-1.16782774173335,0 -79.8048040212728,-1.16755948919838,0 -79.8044510281432,-1.16735723108586,0</coordinates></LinearRing></outerBoundaryIs></Polygon></MultiGeometry>
  </Placemark>
</Folder>
</Document></kml>
