<?xml version="1.0" encoding="utf-8" ?>
<kml xmlns="http://www.opengis.net/kml/2.2">
<Document id="root_doc">
<Schema name="polgonos" id="polgonos">
	<SimpleField name="Has" type="float"></SimpleField>
	<SimpleField name="PROPIETARIO" type="string"></SimpleField>
	<SimpleField name="CODIGO" type="string"></SimpleField>
	<SimpleField name="CANTON" type="string"></SimpleField>
	<SimpleField name="PROVINCIA" type="string"></SimpleField>
</Schema>
<Folder><name>polgonos</name>
  <Placemark>
	<description><![CDATA[
<table style="font-family:Arial;font-size:12px;width:100%;border-collapse:collapse;">
  <tr style="background:#9CBCE2;font-weight:bold;text-align:center;">
    <td colspan="2">SLC-099_001</td>
  </tr>
    <tr>
      <td>ID_interno</td>
      <td>SLC-099</td>
    </tr>
    <tr bgcolor="#D4E4F3">
      <td>ID_unidad</td>
      <td>SLC-099_001</td>
    </tr>
    <tr>
      <td>Area</td>
      <td>4.697</td>
    </tr>
    <tr bgcolor="#D4E4F3">
      <td>Latitud</td>
      <td>-0.970304</td>
    </tr>
    <tr>
      <td>Longitud</td>
      <td>-79.701078</td>
    </tr>
    <tr bgcolor="#D4E4F3">
      <td>Perimetro</td>
      <td>1.146</td>
    </tr>
</table>
]]></description>
	<Style><LineStyle><color>FF232323</color><width>0.737006</width></LineStyle><PolyStyle><fill>0</fill></PolyStyle></Style>
	<ExtendedData>
  <Data name="ID_interno"><value>SLC-099</value></Data>
  <Data name="ID_unidad"><value>SLC-099_001</value></Data>
  <Data name="Area"><value>4.697</value></Data>
  <Data name="Latitud"><value>-0.970304</value></Data>
  <Data name="Longitud"><value>-79.701078</value></Data>
  <Data name="Perimetro"><value>1.146</value></Data>
</ExtendedData>
      <MultiGeometry><Polygon><outerBoundaryIs><LinearRing><coordinates>-79.701089,-0.968258 -79.701937,-0.972543 -79.701246,-0.972623 -79.700818,-0.971816 -79.700289,-0.968325 -79.701089,-0.968258</coordinates></LinearRing></outerBoundaryIs></Polygon></MultiGeometry>
  </Placemark>
</Folder>
</Document></kml>
