<?xml version="1.0" encoding="UTF-8"?>
<kml xmlns="http://www.opengis.net/kml/2.2">
<Document>
<name>078-001_DAVIA_PILOZO.kml</name>
<Style id="sty"><LineStyle><color>fff59e0b</color><width>2</width></LineStyle><PolyStyle><color>4ff59e0b</color></PolyStyle></Style>
<Placemark>
  <name>078-001_DAVIA_PILOZO.kml</name>
  <description><![CDATA[
<table style="font-family:Arial;font-size:12px;width:100%;border-collapse:collapse;">
  <tr style="background:#9CBCE2;font-weight:bold;text-align:center;">
    <td colspan="2">SLC-078_1</td>
  </tr>
    <tr>
      <td>ID_interno</td>
      <td>SLC-078</td>
    </tr>
    <tr bgcolor="#D4E4F3">
      <td>ID_unidad </td>
      <td>SLC-078_1</td>
    </tr>
    <tr>
      <td>Area</td>
      <td>6.7854</td>
    </tr>
    <tr bgcolor="#D4E4F3">
      <td>Latitud</td>
      <td>-1.04902</td>
    </tr>
    <tr>
      <td>Longitud</td>
      <td>-79.567919</td>
    </tr>
    <tr bgcolor="#D4E4F3">
      <td>Perimetro</td>
      <td>1.2702</td>
    </tr>
</table>
]]></description>
  <ExtendedData>
  <Data name="ID_interno"><value>SLC-078</value></Data>
  <Data name="ID_unidad "><value>SLC-078_1</value></Data>
  <Data name="Area"><value>6.7854</value></Data>
  <Data name="Latitud"><value>-1.04902</value></Data>
  <Data name="Longitud"><value>-79.567919</value></Data>
  <Data name="Perimetro"><value>1.2702</value></Data>
</ExtendedData>
  <styleUrl>#sty</styleUrl>
  <Polygon><outerBoundaryIs><LinearRing><coordinates>-79.5687006510224,-1.04768338678267,0 -79.5686557362542,-1.04765623279816,0 -79.5680267777155,-1.04761072129582,0 -79.567829115046,-1.0475744525959,0 -79.5674338020941,-1.04747478186783,0 -79.567002535268,-1.0474022278857,0 -79.5667959119557,-1.04731168841511,0 -79.5665527549171,-1.04852353074736,0 -79.5665527384587,-1.04855970847902,0 -79.5663636290207,-1.04947310914332,0 -79.5663186319306,-1.04962684375645,0 -79.5660486202328,-1.05061256230623,0 -79.5663272093378,-1.05052224666416,0 -79.5681425891996,-1.04980857376389,0 -79.56824593388504,-1.0497814880739549,0 -79.5683302357793,-1.0497588776846194,0 -79.56831816583875,-1.0497156343230738,0 -79.56830509006977,-1.0496586469464828,0 -79.56827860325576,-1.0495828872559936,0 -79.56824272871017,-1.049497406187093,0 -79.56822630017997,-1.04945852068047,0 -79.5682041719556,-1.0494085729169262,0 -79.56818003207447,-1.0493613069117749,0 -79.5681495219469,-1.0493214157437605,0 -79.5681143179536,-1.049261746600724,0 -79.56811130046846,-1.0492168271327376,0 -79.5681454986334,-1.0491755950832116,0 -79.56819847226143,-1.0491581636474665,0 -79.56825111061336,-1.0491766007429617,0 -79.56826686859132,-1.0492248724106368,0 -79.5682641863823,-1.0492671101192386,0 -79.56823602318765,-1.049285211994181,0 -79.56820517778398,-1.0493066660680614,0 -79.5681904256344,-1.0493341540999845,0 -79.56823602318765,-1.049430697429737,0 -79.56829234957695,-1.049587245114351,0 -79.5683492785705,-1.04975440238402,0 -79.5683134315051,-1.04954636370238,0 -79.5688081844988,-1.04832559174093,0 -79.5687725343581,-1.0476834198382,0 -79.5687006510224,-1.04768338678267,0</coordinates></LinearRing></outerBoundaryIs></Polygon>
</Placemark>
</Document>
</kml>