<?xml version="1.0" encoding="utf-8" ?>
<kml xmlns="http://www.opengis.net/kml/2.2">
<Document id="root_doc">
<Schema name="polgonos" id="polgonos">
	<SimpleField name="PROPIETARIO" type="string"></SimpleField>
	<SimpleField name="CODIGO" type="string"></SimpleField>
	<SimpleField name="Has" type="float"></SimpleField>
	<SimpleField name="CANTON" type="string"></SimpleField>
	<SimpleField name="PROVINCIA" type="string"></SimpleField>
</Schema>
<Folder><name>polgonos</name>
  <Placemark>
	<description><![CDATA[
<table style="font-family:Arial;font-size:12px;width:100%;border-collapse:collapse;">
  <tr style="background:#9CBCE2;font-weight:bold;text-align:center;">
    <td colspan="2">SLC-111_1</td>
  </tr>
    <tr>
      <td>ID_interno </td>
      <td>SLC-111</td>
    </tr>
    <tr bgcolor="#D4E4F3">
      <td>ID_unidad </td>
      <td>SLC-111_1</td>
    </tr>
    <tr>
      <td>Area</td>
      <td>2.2771</td>
    </tr>
    <tr bgcolor="#D4E4F3">
      <td>Latitud</td>
      <td>-0.996643</td>
    </tr>
    <tr>
      <td>Longitud</td>
      <td>-79.548268</td>
    </tr>
    <tr bgcolor="#D4E4F3">
      <td>Perimetro</td>
      <td>0.8304</td>
    </tr>
</table>
]]></description>
	<Style><LineStyle><color>FF232323</color><width>0.737006</width></LineStyle><PolyStyle><fill>0</fill></PolyStyle></Style>
	<ExtendedData>
  <Data name="ID_interno "><value>SLC-111</value></Data>
  <Data name="ID_unidad "><value>SLC-111_1</value></Data>
  <Data name="Area"><value>2.2771</value></Data>
  <Data name="Latitud"><value>-0.996643</value></Data>
  <Data name="Longitud"><value>-79.548268</value></Data>
  <Data name="Perimetro"><value>0.8304</value></Data>
</ExtendedData>
      <MultiGeometry><Polygon><outerBoundaryIs><LinearRing><coordinates>-79.5496932914213,-0.996924825695191 -79.5472400478795,-0.995523670019317 -79.5466403755536,-0.996369951488924 -79.5473096823137,-0.996898673267439 -79.547733474722,-0.996499330421235 -79.5482143161082,-0.996766238139876 -79.5488118981002,-0.996799622503382 -79.5490723460576,-0.997080113429766 -79.5496932914213,-0.996924825695191</coordinates></LinearRing></outerBoundaryIs></Polygon></MultiGeometry>
  </Placemark>
</Folder>
</Document></kml>
