<?xml version="1.0" encoding="utf-8" ?>
<kml xmlns="http://www.opengis.net/kml/2.2">
<Document id="root_doc">
<Schema name="polgonos" id="polgonos">
	<SimpleField name="ABREVIADO" type="string"></SimpleField>
</Schema>
<Folder><name>polgonos</name>
  <Placemark>
    <description><![CDATA[
<table style="font-family:Arial;font-size:12px;width:100%;border-collapse:collapse;">
  <tr style="background:#9CBCE2;font-weight:bold;text-align:center;">
    <td colspan="2">SLC-079_1</td>
  </tr>
    <tr>
      <td>ID_interno</td>
      <td>SLC-079</td>
    </tr>
    <tr bgcolor="#D4E4F3">
      <td>ID_unidad</td>
      <td>SLC-079_1</td>
    </tr>
    <tr>
      <td>Area</td>
      <td>17.6922</td>
    </tr>
    <tr bgcolor="#D4E4F3">
      <td>Latitud</td>
      <td>-1.085523</td>
    </tr>
    <tr>
      <td>Longitud</td>
      <td>-79.585097</td>
    </tr>
    <tr bgcolor="#D4E4F3">
      <td>Perimetro</td>
      <td>2.8166</td>
    </tr>
</table>
]]></description>
	<Style><LineStyle><color>ff0000ff</color></LineStyle><PolyStyle><fill>0</fill></PolyStyle></Style>
	<ExtendedData>
  <Data name="ID_interno"><value>SLC-079</value></Data>
  <Data name="ID_unidad"><value>SLC-079_1</value></Data>
  <Data name="Area"><value>17.6922</value></Data>
  <Data name="Latitud"><value>-1.085523</value></Data>
  <Data name="Longitud"><value>-79.585097</value></Data>
  <Data name="Perimetro"><value>2.8166</value></Data>
</ExtendedData>
      <MultiGeometry><Polygon><outerBoundaryIs><LinearRing><coordinates>-79.5852457360096,-1.08082098315081 -79.5852457360096,-1.08082098315081 -79.5834754479559,-1.08110053201593 -79.5837171773881,-1.08299999068788 -79.5845490706122,-1.09108616821725 -79.5863104567706,-1.09064382087571 -79.5862200721639,-1.08985057460156 -79.5853295411725,-1.08997315898072 -79.5849187771718,-1.08637867838095 -79.5858093063573,-1.0862569972053 -79.5852457360096,-1.08082098315081</coordinates></LinearRing></outerBoundaryIs></Polygon></MultiGeometry>
  </Placemark>
</Folder>
</Document></kml>
