<?xml version="1.0" encoding="UTF-8"?>
<kml xmlns="http://www.opengis.net/kml/2.2" xmlns:gx="http://www.google.com/kml/ext/2.2" xmlns:xsi="http://www.w3.org/2001/XMLSchema-instance"
 xsi:schemaLocation="http://www.opengis.net/kml/2.2 http://schemas.opengis.net/kml/2.2.0/ogckml22.xsd http://www.google.com/kml/ext/2.2 http://code.google.com/apis/kml/schema/kml22gx.xsd">
<Document id="Yomira_Manzaba_Arias">
  <name>Yomira Manzaba Arias</name>
  <Snippet></Snippet>
  <Style id="PolyStyle00">
    <LabelStyle>
      <color>00000000</color>
      <scale>0.000000</scale>
    </LabelStyle>
    <LineStyle>
      <color>ff6e6e6e</color>
      <width>0.400000</width>
    </LineStyle>
    <PolyStyle>
      <color>fff4f7cd</color>
      <outline>1</outline>
    </PolyStyle>
  </Style>
  <Folder id="FeatureLayer0">
    <name>Yomira Manzaba Arias</name>
    <Snippet></Snippet>
    <Placemark id="ID_00000">
      <name></name>
      <Snippet></Snippet>
      <description><![CDATA[
<table style="font-family:Arial;font-size:12px;width:100%;border-collapse:collapse;">
  <tr style="background:#9CBCE2;font-weight:bold;text-align:center;">
    <td colspan="2">SLC-080_1</td>
  </tr>
    <tr>
      <td>ID_interno</td>
      <td>SLC-080</td>
    </tr>
    <tr bgcolor="#D4E4F3">
      <td>ID_unidad </td>
      <td>SLC-080_1</td>
    </tr>
    <tr>
      <td>Area</td>
      <td>6.2635</td>
    </tr>
    <tr bgcolor="#D4E4F3">
      <td>Latitud</td>
      <td>-0.978306</td>
    </tr>
    <tr>
      <td>Longitud</td>
      <td>-79.644915</td>
    </tr>
    <tr bgcolor="#D4E4F3">
      <td>Perimetro</td>
      <td>1.3856</td>
    </tr>
</table>
]]></description>
      <styleUrl>#PolyStyle00</styleUrl>
      <MultiGeometry>
        <Polygon>
          <extrude>0</extrude><altitudeMode>clampToGround</altitudeMode>
          <outerBoundaryIs><LinearRing><coordinates> -79.64600134099999,-0.9784724339999608,0 -79.64592889089994,-0.9785161091218768,0 -79.64556210799998,-0.9787372169998307,0 -79.64415629599995,-0.979421676999941,0 -79.64474933199989,-0.9798890719999372,0 -79.6443888959999,-0.9810370359999823,0 -79.64401647799991,-0.9801409729998852,0 -79.64378618499995,-0.9795771989999511,0 -79.64377173999998,-0.9793166249999599,0 -79.64395339099991,-0.9787485719999768,0 -79.64384100799998,-0.9785633489999013,0 -79.64387074099994,-0.9778881209999217,0 -79.64366469999993,-0.9770093229999502,0 -79.64435397599993,-0.9770004009999462,0 -79.64525023299996,-0.976835877999972,0 -79.6457457599999,-0.9766981239999392,0 -79.64576573099998,-0.9771372179999389,0 -79.64554857499985,-0.9772791639998749,0 -79.64551998999997,-0.9774278979999232,0 -79.64560678899994,-0.9775402739999702,0 -79.64577117499988,-0.977586604999945,0 -79.64579214999992,-0.9777478849999216,0 -79.64600134099999,-0.9784724339999608,0</coordinates></LinearRing></outerBoundaryIs>
        </Polygon>
      </MultiGeometry>
    
  <ExtendedData>
  <Data name="ID_interno"><value>SLC-080</value></Data>
  <Data name="ID_unidad "><value>SLC-080_1</value></Data>
  <Data name="Area"><value>6.2635</value></Data>
  <Data name="Latitud"><value>-0.978306</value></Data>
  <Data name="Longitud"><value>-79.644915</value></Data>
  <Data name="Perimetro"><value>1.3856</value></Data>
</ExtendedData>
</Placemark>
  </Folder>
</Document>
</kml>