<?xml version="1.0" encoding="utf-8" ?>
<kml xmlns="http://www.opengis.net/kml/2.2">
<Document id="root_doc">
<Schema name="castro_lopez_carlos_enrrique" id="castro_lopez_carlos_enrrique">
	<SimpleField name="codigo" type="string"></SimpleField>
	<SimpleField name="propietario" type="string"></SimpleField>
	<SimpleField name="DESCRIPCION" type="string"></SimpleField>
	<SimpleField name="area_final" type="float"></SimpleField>
</Schema>
<Folder><name>castro_lopez_carlos_enrrique</name>
  <Placemark>
    <description><![CDATA[
<table style="font-family:Arial;font-size:12px;width:100%;border-collapse:collapse;">
  <tr style="background:#9CBCE2;font-weight:bold;text-align:center;">
    <td colspan="2">SLC-019_1</td>
  </tr>
    <tr>
      <td>ID_interno</td>
      <td>SLC-019</td>
    </tr>
    <tr bgcolor="#D4E4F3">
      <td>ID_unidad</td>
      <td>SLC-019_1</td>
    </tr>
    <tr>
      <td>Area</td>
      <td>3.275</td>
    </tr>
    <tr bgcolor="#D4E4F3">
      <td>Latitud</td>
      <td>-1.249817</td>
    </tr>
    <tr>
      <td>Longitud</td>
      <td>-79.418246</td>
    </tr>
    <tr bgcolor="#D4E4F3">
      <td>Perimetro</td>
      <td>2.28</td>
    </tr>
</table>
]]></description>
	<Style><LineStyle><color>ff0000ff</color></LineStyle><PolyStyle><fill>0</fill></PolyStyle></Style>
	<ExtendedData>
  <Data name="ID_interno"><value>SLC-019</value></Data>
  <Data name="ID_unidad"><value>SLC-019_1</value></Data>
  <Data name="Area"><value>3.275</value></Data>
  <Data name="Latitud"><value>-1.249817</value></Data>
  <Data name="Longitud"><value>-79.418246</value></Data>
  <Data name="Perimetro"><value>2.28</value></Data>
</ExtendedData>
      <MultiGeometry><Polygon><outerBoundaryIs><LinearRing><coordinates>-79.4186589985847,-1.24932303033911 -79.4183338882011,-1.24961835853709 -79.4174414069833,-1.25036336181455 -79.4174943536232,-1.25071570285667 -79.418889782507,-1.24955975610744 -79.4186589985847,-1.24932303033911</coordinates></LinearRing></outerBoundaryIs></Polygon></MultiGeometry>
  </Placemark>
  <Placemark>
	<Style><LineStyle><color>ff0000ff</color></LineStyle><PolyStyle><fill>0</fill></PolyStyle></Style>
	<ExtendedData>
  <Data name="ID_interno"><value>SLC-019</value></Data>
  <Data name="ID_unidad"><value>SLC-019_1</value></Data>
  <Data name="Area"><value>3.275</value></Data>
  <Data name="Latitud"><value>-1.249817</value></Data>
  <Data name="Longitud"><value>-79.418246</value></Data>
  <Data name="Perimetro"><value>2.28</value></Data>
</ExtendedData>
      <MultiGeometry><Polygon><outerBoundaryIs><LinearRing><coordinates>-79.4186589985847,-1.24932303033911 -79.4183338882011,-1.24961835853709 -79.4174414069833,-1.25036336181455 -79.4174943536232,-1.25071570285667 -79.418889782507,-1.24955975610744 -79.4186589985847,-1.24932303033911</coordinates></LinearRing></outerBoundaryIs></Polygon></MultiGeometry>
  </Placemark>
  <Placemark>
	<Style><LineStyle><color>ff0000ff</color></LineStyle><PolyStyle><fill>0</fill></PolyStyle></Style>
	<ExtendedData>
  <Data name="ID_interno"><value>SLC-019</value></Data>
  <Data name="ID_unidad"><value>SLC-019_1</value></Data>
  <Data name="Area"><value>3.275</value></Data>
  <Data name="Latitud"><value>-1.249817</value></Data>
  <Data name="Longitud"><value>-79.418246</value></Data>
  <Data name="Perimetro"><value>2.28</value></Data>
</ExtendedData>
      <MultiGeometry><Polygon><outerBoundaryIs><LinearRing><coordinates>-79.4186589985847,-1.24932303033911 -79.4183338882011,-1.24961835853709 -79.4174414069833,-1.25036336181455 -79.4174943536232,-1.25071570285667 -79.418889782507,-1.24955975610744 -79.4186589985847,-1.24932303033911</coordinates></LinearRing></outerBoundaryIs></Polygon></MultiGeometry>
  </Placemark>
  <Placemark>
	<Style><LineStyle><color>ff0000ff</color></LineStyle><PolyStyle><fill>0</fill></PolyStyle></Style>
	<ExtendedData>
  <Data name="ID_interno"><value>SLC-019</value></Data>
  <Data name="ID_unidad"><value>SLC-019_1</value></Data>
  <Data name="Area"><value>3.275</value></Data>
  <Data name="Latitud"><value>-1.249817</value></Data>
  <Data name="Longitud"><value>-79.418246</value></Data>
  <Data name="Perimetro"><value>2.28</value></Data>
</ExtendedData>
      <MultiGeometry><Polygon><outerBoundaryIs><LinearRing><coordinates>-79.4186589985847,-1.24932303033911 -79.4183338882011,-1.24961835853709 -79.4174414069833,-1.25036336181455 -79.4174943536232,-1.25071570285667 -79.418889782507,-1.24955975610744 -79.4186589985847,-1.24932303033911</coordinates></LinearRing></outerBoundaryIs></Polygon></MultiGeometry>
  </Placemark>
  <Placemark>
	<Style><LineStyle><color>ff0000ff</color></LineStyle><PolyStyle><fill>0</fill></PolyStyle></Style>
	<ExtendedData>
  <Data name="ID_interno"><value>SLC-019</value></Data>
  <Data name="ID_unidad"><value>SLC-019_1</value></Data>
  <Data name="Area"><value>3.275</value></Data>
  <Data name="Latitud"><value>-1.249817</value></Data>
  <Data name="Longitud"><value>-79.418246</value></Data>
  <Data name="Perimetro"><value>2.28</value></Data>
</ExtendedData>
      <MultiGeometry><Polygon><outerBoundaryIs><LinearRing><coordinates>-79.4186589985847,-1.24932303033911 -79.4183338882011,-1.24961835853709 -79.4174414069833,-1.25036336181455 -79.4174943536232,-1.25071570285667 -79.418889782507,-1.24955975610744 -79.4186589985847,-1.24932303033911</coordinates></LinearRing></outerBoundaryIs></Polygon></MultiGeometry>
  </Placemark>
</Folder>
</Document></kml>
