<?xml version="1.0" encoding="utf-8" ?>
<kml xmlns="http://www.opengis.net/kml/2.2">
<Document id="root_doc">
<Schema name="finc_genesis_romero_t" id="finc_genesis_romero_t">
	<SimpleField name="id" type="string"></SimpleField>
	<SimpleField name="fill" type="string"></SimpleField>
</Schema>
<Folder><name>finc_genesis_romero_t</name>
  <Placemark>
    <description><![CDATA[
<table style="font-family:Arial;font-size:12px;width:100%;border-collapse:collapse;">
  <tr style="background:#9CBCE2;font-weight:bold;text-align:center;">
    <td colspan="2">SLC-193_1</td>
  </tr>
    <tr>
      <td>ID_interno</td>
      <td>SLC-193</td>
    </tr>
    <tr bgcolor="#D4E4F3">
      <td>ID_unidad</td>
      <td>SLC-193_1</td>
    </tr>
    <tr>
      <td>Area</td>
      <td>1.96</td>
    </tr>
    <tr bgcolor="#D4E4F3">
      <td>Latitud</td>
      <td>-1.170166</td>
    </tr>
    <tr>
      <td>Longitud</td>
      <td>-79.798956</td>
    </tr>
    <tr bgcolor="#D4E4F3">
      <td>Perimetro</td>
      <td>0.601</td>
    </tr>
</table>
]]></description>
	<Style><LineStyle><color>ff0000ff</color></LineStyle><PolyStyle><fill>0</fill></PolyStyle></Style>
	<ExtendedData>
  <Data name="ID_interno"><value>SLC-193</value></Data>
  <Data name="ID_unidad"><value>SLC-193_1</value></Data>
  <Data name="Area"><value>1.96</value></Data>
  <Data name="Latitud"><value>-1.170166</value></Data>
  <Data name="Longitud"><value>-79.798956</value></Data>
  <Data name="Perimetro"><value>0.601</value></Data>
</ExtendedData>
      <Polygon><outerBoundaryIs><LinearRing><coordinates>-79.7993422017883,-1.1706586391152,0 -79.7993492335081,-1.17066254194517,0 -79.7993395105004,-1.17066488838819,0 -79.7993422017883,-1.1706586391152,0</coordinates></LinearRing></outerBoundaryIs></Polygon>
  </Placemark>
  <Placemark>
	<Style><LineStyle><color>ff0000ff</color></LineStyle><PolyStyle><fill>0</fill></PolyStyle></Style>
	<ExtendedData>
  <Data name="ID_interno"><value>SLC-193</value></Data>
  <Data name="ID_unidad"><value>SLC-193_1</value></Data>
  <Data name="Area"><value>1.96</value></Data>
  <Data name="Latitud"><value>-1.170166</value></Data>
  <Data name="Longitud"><value>-79.798956</value></Data>
  <Data name="Perimetro"><value>0.601</value></Data>
</ExtendedData>
      <Polygon><outerBoundaryIs><LinearRing><coordinates>-79.7993901371956,-1.17059885277659,0 -79.7997974976897,-1.16989089728959,0 -79.7988453134894,-1.16941356356495,0 -79.7980755195022,-1.16914707454712,0 -79.7978565841913,-1.16955803747472,0 -79.7977848351002,-1.16997000596083,0 -79.7993901371956,-1.17059885277659,0</coordinates></LinearRing></outerBoundaryIs></Polygon>
  </Placemark>
</Folder>
</Document></kml>
