<?xml version="1.0" encoding="UTF-8"?>
<kml xmlns="http://www.opengis.net/kml/2.2">
<Document>
<name>ESPINOZA ALAVA PLACIDO BERCELIO002.kml</name>
<Style id="sty"><LineStyle><color>ff38bdf8</color><width>2</width></LineStyle><PolyStyle><color>4f38bdf8</color></PolyStyle></Style>
<Placemark>
  <name>ESPINOZA ALAVA PLACIDO BERCELIO002.kml</name>
  <description><![CDATA[
<table style="font-family:Arial;font-size:12px;width:100%;border-collapse:collapse;">
  <tr style="background:#9CBCE2;font-weight:bold;text-align:center;">
    <td colspan="2">SLC-090_1</td>
  </tr>
    <tr>
      <td>ID_interno </td>
      <td>SLC-090</td>
    </tr>
    <tr bgcolor="#D4E4F3">
      <td>ID_unidad </td>
      <td>SLC-090_1</td>
    </tr>
    <tr>
      <td>Area</td>
      <td>5.6582</td>
    </tr>
    <tr bgcolor="#D4E4F3">
      <td>Latitud</td>
      <td>-1.052627</td>
    </tr>
    <tr>
      <td>Longitud</td>
      <td>-79.653268</td>
    </tr>
    <tr bgcolor="#D4E4F3">
      <td>Perimetro</td>
      <td>2.0636</td>
    </tr>
</table>
]]></description>
  <ExtendedData>
  <Data name="ID_interno "><value>SLC-090</value></Data>
  <Data name="ID_unidad "><value>SLC-090_1</value></Data>
  <Data name="Area"><value>5.6582</value></Data>
  <Data name="Latitud"><value>-1.052627</value></Data>
  <Data name="Longitud"><value>-79.653268</value></Data>
  <Data name="Perimetro"><value>2.0636</value></Data>
</ExtendedData>
  <styleUrl>#sty</styleUrl>
  <MultiGeometry><Polygon><outerBoundaryIs><LinearRing><coordinates>-79.6536476580082,-1.05187826808091,0 -79.6536476580082,-1.05187826808091,0 -79.6527409785334,-1.05191767116137,0 -79.6527409552545,-1.05197193975235,0 -79.6529835433846,-1.05203535855089,0 -79.6527584492813,-1.05308445368207,0 -79.6528572925785,-1.05308449668466,0 -79.6528750892905,-1.05349151895436,0 -79.6529916904034,-1.05398903192027,0 -79.6530904637791,-1.05415188074656,0 -79.6537720573328,-1.05514257981779,0 -79.6539992778473,-1.05332829763882,0 -79.6535491181316,-1.05326569297679,0 -79.6537291825196,-1.05245174193645,0 -79.6535135282671,-1.05244260345756,0 -79.6536476580082,-1.05187826808091,0</coordinates></LinearRing></outerBoundaryIs></Polygon><Polygon><outerBoundaryIs><LinearRing><coordinates>-79.6536476580082,-1.05187826808091,0 -79.6536476580082,-1.05187826808091,0 -79.6527409785334,-1.05191767116137,0 -79.6527409552545,-1.05197193975235,0 -79.65286224931955,-1.05200364915162,0 -79.65298511087896,-1.0520360253271723,0 -79.65306088328362,-1.0520728994840671,0 -79.65320169925691,-1.0521446364789928,0 -79.65327344834806,-1.0522193904485633,0 -79.65330932289362,-1.0521624031176577,0 -79.65336665511133,-1.0521446364789928,0 -79.6534551680088,-1.052168772289994,0 -79.65351149439813,-1.052246543235278,0 -79.65349003672601,-1.0523189506653554,0 -79.65340957045557,-1.0523591770146745,0 -79.65333580970766,-1.052354483940624,0 -79.6532928943634,-1.0522907922205316,0 -79.65324059128763,-1.0522438614785778,0 -79.65319365262987,-1.0521915672224351,0 -79.65316280722618,-1.0521634087764535,0 -79.6531091630459,-1.0521285459382193,0 -79.65306892991066,-1.0521070918837274,0 -79.65297639369966,-1.0520641837742986,0 -79.6527584492813,-1.05308445368207,0 -79.6528572925785,-1.05308449668466,0 -79.6528750892905,-1.05349151895436,0 -79.6529916904034,-1.05398903192027,0 -79.6530904637791,-1.05415188074656,0 -79.6537720573328,-1.05514257981779,0 -79.6539992778473,-1.05332829763882,0 -79.6535491181316,-1.05326569297679,0 -79.6537291825196,-1.05245174193645,0 -79.6535135282671,-1.05244260345756,0 -79.6536476580082,-1.05187826808091,0</coordinates></LinearRing></outerBoundaryIs></Polygon></MultiGeometry>
</Placemark>
</Document>
</kml>