<?xml version="1.0" encoding="utf-8" ?>
<kml xmlns="http://www.opengis.net/kml/2.2">
<Document id="root_doc">
<Schema name="polgonos" id="polgonos">
	<SimpleField name="ID_interno" type="string"></SimpleField>
	<SimpleField name="ID_unidad" type="string"></SimpleField>
	<SimpleField name="Area" type="float"></SimpleField>
	<SimpleField name="Latitud" type="float"></SimpleField>
	<SimpleField name="Longitud" type="float"></SimpleField>
</Schema>
<Folder><name>polgonos</name>
  <Placemark>
	<description><![CDATA[
<table style="font-family:Arial;font-size:12px;width:100%;border-collapse:collapse;">
  <tr style="background:#9CBCE2;font-weight:bold;text-align:center;">
    <td colspan="2">SLC-112-02</td>
  </tr>
    <tr>
      <td>ID_interno</td>
      <td>SLC-112</td>
    </tr>
    <tr bgcolor="#D4E4F3">
      <td>ID_unidad</td>
      <td>SLC-112_2</td>
    </tr>
    <tr>
      <td>Area</td>
      <td>3.669</td>
    </tr>
    <tr bgcolor="#D4E4F3">
      <td>Latitud</td>
      <td>-1.07804</td>
    </tr>
    <tr>
      <td>Longitud</td>
      <td>-79.6065</td>
    </tr>
    <tr bgcolor="#D4E4F3">
      <td>Perimetro</td>
      <td>1.163</td>
    </tr>
</table>
]]></description>
	<Style><LineStyle><color>ff0000ff</color></LineStyle><PolyStyle><fill>0</fill></PolyStyle></Style>
	<ExtendedData>
  <Data name="ID_interno"><value>SLC-112</value></Data>
  <Data name="ID_unidad"><value>SLC-112_2</value></Data>
  <Data name="Area"><value>3.669</value></Data>
  <Data name="Latitud"><value>-1.07804</value></Data>
  <Data name="Longitud"><value>-79.6065</value></Data>
  <Data name="Perimetro"><value>1.163</value></Data>
</ExtendedData>
      <MultiGeometry><Polygon><outerBoundaryIs><LinearRing><coordinates>-79.605948,-1.077713 -79.605706,-1.076606 -79.605763,-1.076596 -79.606441,-1.076641 -79.607352,-1.076664 -79.607512,-1.076594 -79.607807,-1.077118 -79.606819,-1.0778 -79.606791,-1.078374 -79.606485,-1.078362 -79.606473,-1.078448 -79.606748,-1.078464 -79.606496,-1.080048 -79.606235,-1.079565 -79.606235,-1.079565 -79.606389,-1.078985 -79.606368,-1.078735 -79.60598,-1.078777 -79.605948,-1.077713</coordinates></LinearRing></outerBoundaryIs></Polygon></MultiGeometry>
  </Placemark>
</Folder>
</Document></kml>
