<?xml version="1.0" encoding="UTF-8"?>
<kml xmlns="http://www.opengis.net/kml/2.2">
<Document>
<name>SLC-020_2</name>
<Style id="sty"><LineStyle><color>ff60a5fa</color><width>2</width></LineStyle><PolyStyle><color>4f60a5fa</color></PolyStyle></Style>
<Placemark>
  <name>SLC-020_2</name>
  <description><![CDATA[
<table style="font-family:Arial;font-size:12px;width:100%;border-collapse:collapse;">
  <tr style="background:#9CBCE2;font-weight:bold;text-align:center;">
    <td colspan="2">SLC-020_2</td>
  </tr>
    <tr>
      <td>ID_interno</td>
      <td>SLC-020</td>
    </tr>
    <tr bgcolor="#D4E4F3">
      <td>ID_unidad</td>
      <td>SLC-020_2</td>
    </tr>
    <tr>
      <td>Area</td>
      <td>2,44</td>
    </tr>
    <tr bgcolor="#D4E4F3">
      <td>Latitud</td>
      <td>-0.947355</td>
    </tr>
    <tr>
      <td>Longitud</td>
      <td>-79.60886</td>
    </tr>
    <tr bgcolor="#D4E4F3">
      <td>Perimetro</td>
      <td>0.8374</td>
    </tr>
</table>
]]></description>
  <ExtendedData>
  <Data name="ID_interno"><value>SLC-020</value></Data>
  <Data name="ID_unidad"><value>SLC-020_2</value></Data>
  <Data name="Area"><value>2,44</value></Data>
  <Data name="Latitud"><value>-0.947355</value></Data>
  <Data name="Longitud"><value>-79.60886</value></Data>
  <Data name="Perimetro"><value>0.8374</value></Data>
</ExtendedData>
  <styleUrl>#sty</styleUrl>
  <Polygon><outerBoundaryIs><LinearRing><coordinates>-79.60802659392358,-0.9474029025691043,0 -79.6083028614521,-0.9474136299384635,0 -79.60857242345811,-0.947468607705904,0 -79.60902437567712,-0.947640245608385,0 -79.60910752415658,-0.947640245608385,0 -79.60920542478563,-0.947681814161614,0 -79.60924834012987,-0.9477609285034778,0 -79.60953,-0.948,0 -79.61022,-0.94759,0 -79.61053,-0.94745,0 -79.61014017462732,-0.947083763315513,0 -79.60941463708879,-0.946808874439075,0 -79.60863277316095,-0.9466097476052228,0 -79.60862606763841,-0.9466888619715641,0 -79.60861,-0.94695,0 -79.60719,-0.94725,0 -79.60729837417604,-0.9475182217879652,0 -79.6077959239483,-0.9474256982289511,0</coordinates></LinearRing></outerBoundaryIs></Polygon>
</Placemark>
</Document>
</kml>