<?xml version="1.0" encoding="utf-8" ?>
<kml xmlns="http://www.opengis.net/kml/2.2">
<Document id="root_doc">
<Schema name="polgonos" id="polgonos">
	<SimpleField name="Has" type="float"></SimpleField>
	<SimpleField name="PROPIETARIO" type="string"></SimpleField>
	<SimpleField name="CODIGO" type="string"></SimpleField>
	<SimpleField name="CANTON" type="string"></SimpleField>
	<SimpleField name="PROVINCIA" type="string"></SimpleField>
</Schema>
<Folder><name>polgonos</name>
  <Placemark>
	<description><![CDATA[
<table style="font-family:Arial;font-size:12px;width:100%;border-collapse:collapse;">
  <tr style="background:#9CBCE2;font-weight:bold;text-align:center;">
    <td colspan="2">SLC-092_1</td>
  </tr>
    <tr>
      <td>ID_interno</td>
      <td>SLC-092</td>
    </tr>
    <tr bgcolor="#D4E4F3">
      <td>ID_unidad</td>
      <td>SLC-092_1</td>
    </tr>
    <tr>
      <td>Area</td>
      <td>7.093</td>
    </tr>
    <tr bgcolor="#D4E4F3">
      <td>Latitud</td>
      <td>-0.972793</td>
    </tr>
    <tr>
      <td>Longitud</td>
      <td>-79.728286</td>
    </tr>
    <tr bgcolor="#D4E4F3">
      <td>Perimetro</td>
      <td>1.387</td>
    </tr>
</table>
]]></description>
	<Style><LineStyle><color>FF232323</color><width>0.737006</width></LineStyle><PolyStyle><fill>0</fill></PolyStyle></Style>
	<ExtendedData>
  <Data name="ID_interno"><value>SLC-092</value></Data>
  <Data name="ID_unidad"><value>SLC-092_1</value></Data>
  <Data name="Area"><value>7.093</value></Data>
  <Data name="Latitud"><value>-0.972793</value></Data>
  <Data name="Longitud"><value>-79.728286</value></Data>
  <Data name="Perimetro"><value>1.387</value></Data>
</ExtendedData>
      <MultiGeometry><Polygon><outerBoundaryIs><LinearRing><coordinates>-79.7283978248708,-0.970743226135932 -79.7273464593687,-0.970815188320317 -79.7280544190783,-0.975934951656399 -79.7292316389376,-0.975727363466322 -79.7283978248708,-0.970743226135932</coordinates></LinearRing></outerBoundaryIs></Polygon></MultiGeometry>
  </Placemark>
</Folder>
</Document></kml>
