<?xml version="1.0" encoding="utf-8" ?>
<kml xmlns="http://www.opengis.net/kml/2.2">
<Document id="root_doc">
<Schema name="polgonos" id="polgonos">
	<SimpleField name="ID_interno" type="string"></SimpleField>
	<SimpleField name="ID_unidad" type="string"></SimpleField>
	<SimpleField name="Area" type="int"></SimpleField>
	<SimpleField name="Latitud" type="float"></SimpleField>
	<SimpleField name="Longitud" type="float"></SimpleField>
</Schema>
<Folder><name>polgonos</name>
  <Placemark>
	<description><![CDATA[
<table style="font-family:Arial;font-size:12px;width:100%;border-collapse:collapse;">
  <tr style="background:#9CBCE2;font-weight:bold;text-align:center;">
    <td colspan="2">SLC-116-001</td>
  </tr>
    <tr>
      <td>ID_interno</td>
      <td>SLC-116</td>
    </tr>
    <tr bgcolor="#D4E4F3">
      <td>ID_unidad</td>
      <td>SLC-116-001</td>
    </tr>
    <tr>
      <td>Area</td>
      <td>3.3513</td>
    </tr>
    <tr bgcolor="#D4E4F3">
      <td>Latitud</td>
      <td>-1.079501</td>
    </tr>
    <tr>
      <td>Longitud</td>
      <td>-79.639032</td>
    </tr>
    <tr bgcolor="#D4E4F3">
      <td>Perimetro</td>
      <td>0.74</td>
    </tr>
</table>
]]></description>
	<Style><LineStyle><color>ff0000ff</color></LineStyle><PolyStyle><fill>0</fill></PolyStyle></Style>
	<ExtendedData>
  <Data name="ID_interno"><value>SLC-116</value></Data>
  <Data name="ID_unidad"><value>SLC-116-001</value></Data>
  <Data name="Area"><value>3.3513</value></Data>
  <Data name="Latitud"><value>-1.079501</value></Data>
  <Data name="Longitud"><value>-79.639032</value></Data>
  <Data name="Perimetro"><value>0.74</value></Data>
</ExtendedData>
      <MultiGeometry><Polygon><outerBoundaryIs><LinearRing><coordinates>-79.6396891918373,-1.07899411562919 -79.6396891918373,-1.07899411562919 -79.6383251610476,-1.07856613876641 -79.6380499032963,-1.08003261453703 -79.6379781164781,-1.08041472114529 -79.6397997617015,-1.08051060260197 -79.6396891918373,-1.07899411562919</coordinates></LinearRing></outerBoundaryIs></Polygon></MultiGeometry>
  </Placemark>
</Folder>
</Document></kml>
