<?xml version="1.0" encoding="utf-8" ?>
<kml xmlns="http://www.opengis.net/kml/2.2">
<Document id="root_doc">
<Schema name="polgonos" id="polgonos">
	<SimpleField name="DATOS" type="string"></SimpleField>
</Schema>
<Folder><name>polgonos</name>
  <Placemark>
    <description><![CDATA[
<table style="font-family:Arial;font-size:12px;width:100%;border-collapse:collapse;">
  <tr style="background:#9CBCE2;font-weight:bold;text-align:center;">
    <td colspan="2">SLC-082_1</td>
  </tr>
    <tr>
      <td>ID_interno</td>
      <td>SLC-082</td>
    </tr>
    <tr bgcolor="#D4E4F3">
      <td>ID_unidad </td>
      <td>SLC-082_1</td>
    </tr>
    <tr>
      <td>Area</td>
      <td>0.8443</td>
    </tr>
    <tr bgcolor="#D4E4F3">
      <td>Latitud</td>
      <td>-1.135323</td>
    </tr>
    <tr>
      <td>Longitud</td>
      <td>-79.607824</td>
    </tr>
    <tr bgcolor="#D4E4F3">
      <td>Perimetro</td>
      <td>0.3759</td>
    </tr>
</table>
]]></description>
	<Style><LineStyle><color>FF232323</color><width>0.737006</width></LineStyle><PolyStyle><fill>0</fill></PolyStyle></Style>
	<ExtendedData>
  <Data name="ID_interno"><value>SLC-082</value></Data>
  <Data name="ID_unidad "><value>SLC-082_1</value></Data>
  <Data name="Area"><value>0.8443</value></Data>
  <Data name="Latitud"><value>-1.135323</value></Data>
  <Data name="Longitud"><value>-79.607824</value></Data>
  <Data name="Perimetro"><value>0.3759</value></Data>
</ExtendedData>
      <MultiGeometry><Polygon><outerBoundaryIs><LinearRing><coordinates>-79.6079899946499,-1.13504485757132 -79.6079899946499,-1.13504485757132 -79.6078012965756,-1.13503572154821 -79.6077563847392,-1.13499952141984 -79.6075047253207,-1.13511697913672 -79.6071092667064,-1.13528863461511 -79.6073506403699,-1.13600960544942 -79.6076751184613,-1.13582253981655 -79.6082862718191,-1.13557863211013 -79.6082952836092,-1.13552436891747 -79.6081336165226,-1.13536148789927 -79.6079899946499,-1.13504485757132</coordinates></LinearRing></outerBoundaryIs></Polygon></MultiGeometry>
  </Placemark>
</Folder>
</Document></kml>
