<?xml version="1.0" encoding="utf-8" ?>
<kml xmlns="http://www.opengis.net/kml/2.2">
<Document id="root_doc">
<Schema name="polgonos_copiar_copiar" id="polgonos_copiar_copiar">
	<SimpleField name="DATOS" type="string"></SimpleField>
</Schema>
<Folder><name>polgonos_copiar_copiar</name>
  <Placemark>
    <description><![CDATA[
<table style="font-family:Arial;font-size:12px;width:100%;border-collapse:collapse;">
  <tr style="background:#9CBCE2;font-weight:bold;text-align:center;">
    <td colspan="2">SLC-081_2</td>
  </tr>
    <tr>
      <td>ID_interno</td>
      <td>SLC-081</td>
    </tr>
    <tr bgcolor="#D4E4F3">
      <td>ID_unidad</td>
      <td>SLC-081_2</td>
    </tr>
    <tr>
      <td>Area</td>
      <td>1.0885</td>
    </tr>
    <tr bgcolor="#D4E4F3">
      <td>Latitud</td>
      <td>-0.977095</td>
    </tr>
    <tr>
      <td>Longitud</td>
      <td>-79.647243</td>
    </tr>
    <tr bgcolor="#D4E4F3">
      <td>Perimetro</td>
      <td>0.4692</td>
    </tr>
</table>
]]></description>
	<Style><LineStyle><color>FF232323</color><width>0.737006</width></LineStyle><PolyStyle><fill>0</fill></PolyStyle></Style>
	<ExtendedData>
  <Data name="ID_interno"><value>SLC-081</value></Data>
  <Data name="ID_unidad"><value>SLC-081_2</value></Data>
  <Data name="Area"><value>1.0885</value></Data>
  <Data name="Latitud"><value>-0.977095</value></Data>
  <Data name="Longitud"><value>-79.647243</value></Data>
  <Data name="Perimetro"><value>0.4692</value></Data>
</ExtendedData>
      <MultiGeometry><Polygon><outerBoundaryIs><LinearRing><coordinates>-79.6474671274848,-0.976808296063902 -79.6474456396189,-0.976752804536056 -79.6472444793299,-0.976705548524102 -79.6471621870553,-0.97668480442101 -79.6471165399827,-0.976496087905728 -79.6468919859775,-0.976476490761574 -79.646805551743,-0.977056240393256 -79.6468413001498,-0.977540148944168 -79.6469740472206,-0.978136251762152 -79.6475869684077,-0.977866062395707 -79.6475062253631,-0.977549463356624 -79.6474523299428,-0.977505122224096 -79.6474345821447,-0.976947053894594 -79.6474671274848,-0.976808296063902</coordinates></LinearRing></outerBoundaryIs></Polygon></MultiGeometry>
  </Placemark>
</Folder>
</Document></kml>
