<?xml version="1.0" encoding="utf-8" ?>
<kml xmlns="http://www.opengis.net/kml/2.2">
<Document id="root_doc">
<Schema name="polgonos" id="polgonos">
	<SimpleField name="DATOS" type="string"></SimpleField>
</Schema>
<Folder><name>polgonos</name>
  <Placemark>
    <description><![CDATA[
<table style="font-family:Arial;font-size:12px;width:100%;border-collapse:collapse;">
  <tr style="background:#9CBCE2;font-weight:bold;text-align:center;">
    <td colspan="2">SLC-077_2</td>
  </tr>
    <tr>
      <td>ID_interno </td>
      <td>SLC-077</td>
    </tr>
    <tr bgcolor="#D4E4F3">
      <td>ID_unidad</td>
      <td>SLC-077_2</td>
    </tr>
    <tr>
      <td>Area</td>
      <td>9.0897</td>
    </tr>
    <tr bgcolor="#D4E4F3">
      <td>Latitud</td>
      <td>-0.99321</td>
    </tr>
    <tr>
      <td>Longitud</td>
      <td>-79.636688</td>
    </tr>
    <tr bgcolor="#D4E4F3">
      <td>Perimetro</td>
      <td>1.4255</td>
    </tr>
</table>
]]></description>
	<Style><LineStyle><color>FF232323</color><width>0.737006</width></LineStyle><PolyStyle><fill>0</fill></PolyStyle></Style>
	<ExtendedData>
  <Data name="ID_interno "><value>SLC-077</value></Data>
  <Data name="ID_unidad"><value>SLC-077_2</value></Data>
  <Data name="Area"><value>9.0897</value></Data>
  <Data name="Latitud"><value>-0.99321</value></Data>
  <Data name="Longitud"><value>-79.636688</value></Data>
  <Data name="Perimetro"><value>1.4255</value></Data>
</ExtendedData>
      <MultiGeometry><Polygon><outerBoundaryIs><LinearRing><coordinates>-79.6386043622443,-0.992840459156443 -79.6371126307403,-0.993165450091583 -79.6370859408642,-0.992514219807027 -79.6350826991321,-0.991219995562569 -79.6350640237766,-0.99293848149462 -79.6350907613837,-0.993472130121201 -79.6348391556367,-0.99349915959157 -79.6371208596586,-0.995010574603539 -79.6382711751659,-0.994604040577191 -79.6386043622443,-0.992840459156443</coordinates></LinearRing></outerBoundaryIs></Polygon></MultiGeometry>
  </Placemark>
</Folder>
</Document></kml>
