<?xml version="1.0" encoding="utf-8" ?>
<kml xmlns="http://www.opengis.net/kml/2.2">
<Document id="root_doc">
<Schema name="veliz_carcamo_pablo_alfredo" id="veliz_carcamo_pablo_alfredo">
	<SimpleField name="AREA" type="float"></SimpleField>
	<SimpleField name="PRODUCTOR" type="string"></SimpleField>
	<SimpleField name="COMUNIDAD" type="string"></SimpleField>
	<SimpleField name="LOTE" type="string"></SimpleField>
</Schema>
<Folder><name>veliz_carcamo_pablo_alfredo</name>
  <Placemark>
	<Style><LineStyle><color>ff0000ff</color></LineStyle><PolyStyle><fill>0</fill></PolyStyle></Style>
	<ExtendedData><SchemaData schemaUrl="#veliz_carcamo_pablo_alfredo">
		<SimpleData name="AREA">0.67129276476486</SimpleData>
		<SimpleData name="PRODUCTOR">VELIZ CARCAMO PABLO ALFREDO</SimpleData>
		<SimpleData name="COMUNIDAD">SANTA LUCIA </SimpleData>
		<SimpleData name="LOTE">LOTE 3</SimpleData>
	</SchemaData></ExtendedData>
      <MultiGeometry><Polygon><outerBoundaryIs><LinearRing><coordinates>-79.4776305887552,-1.29909611195771 -79.4776775258998,-1.2991367908164 -79.4776650093279,-1.29930889368006 -79.4776340350048,-1.29941477330062 -79.4772532449901,-1.29941956311212 -79.477040098378,-1.29962552500689 -79.476992200263,-1.29986262067645 -79.476302,-1.299872 -79.4763024674061,-1.29980514293838 -79.4764054483535,-1.29968300274497 -79.47654661,-1.299489552 -79.4765826713792,-1.29939800896035 -79.4767043624344,-1.29924474624906 -79.4768461110121,-1.2991704929138 -79.4772652195189,-1.29917528272531 -79.4775805224676,-1.29911332224408 -79.4776305887552,-1.29909611195771</coordinates></LinearRing></outerBoundaryIs></Polygon></MultiGeometry>
  </Placemark>
</Folder>
</Document></kml>
