<?xml version="1.0" encoding="utf-8" ?>
<kml xmlns="http://www.opengis.net/kml/2.2">
<Document id="root_doc">
<Schema name="polgonos" id="polgonos">
	<SimpleField name="PROPIETARIO" type="string"></SimpleField>
	<SimpleField name="CODIGO" type="string"></SimpleField>
	<SimpleField name="Has" type="float"></SimpleField>
</Schema>
<Folder><name>polgonos</name>
  <Placemark>
	<description><![CDATA[
<table style="font-family:Arial;font-size:12px;width:100%;border-collapse:collapse;">
  <tr style="background:#9CBCE2;font-weight:bold;text-align:center;">
    <td colspan="2">SLC-087_1</td>
  </tr>
    <tr>
      <td>ID_interno</td>
      <td>SLC-087</td>
    </tr>
    <tr bgcolor="#D4E4F3">
      <td>ID_unidad</td>
      <td>SLC-087_1</td>
    </tr>
    <tr>
      <td>Area</td>
      <td>2.1085</td>
    </tr>
    <tr bgcolor="#D4E4F3">
      <td>Latitud</td>
      <td>-0.971779</td>
    </tr>
    <tr>
      <td>Longitud</td>
      <td>-79.685332</td>
    </tr>
    <tr bgcolor="#D4E4F3">
      <td>Perimetro</td>
      <td>0.7105</td>
    </tr>
</table>
]]></description>
	<Style><LineStyle><color>FF232323</color><width>0.737006</width></LineStyle><PolyStyle><fill>0</fill></PolyStyle></Style>
	<ExtendedData>
  <Data name="ID_interno"><value>SLC-087</value></Data>
  <Data name="ID_unidad"><value>SLC-087_1</value></Data>
  <Data name="Area"><value>2.1085</value></Data>
  <Data name="Latitud"><value>-0.971779</value></Data>
  <Data name="Longitud"><value>-79.685332</value></Data>
  <Data name="Perimetro"><value>0.7105</value></Data>
</ExtendedData>
      <MultiGeometry><Polygon><outerBoundaryIs><LinearRing><coordinates>-79.6859482154705,-0.971101347520991 -79.6859482154705,-0.971101347520991 -79.6857963593841,-0.971097670134556 -79.6857784928829,-0.97082631635117 -79.6856617423208,-0.970663462601176 -79.6848257205651,-0.971585714147203 -79.6847088196823,-0.971811790563785 -79.6846547027823,-0.972336372905107 -79.6848431142467,-0.973078127738695 -79.6848340865522,-0.973186662869423 -79.6850316657846,-0.973458087119459 -79.6859482154705,-0.971101347520991</coordinates></LinearRing></outerBoundaryIs></Polygon></MultiGeometry>
  </Placemark>
</Folder>
</Document></kml>
