<?xml version="1.0" encoding="utf-8" ?>
<kml xmlns="http://www.opengis.net/kml/2.2">
<Document id="root_doc">
<Schema name="sandro_cevallosjson_1" id="sandro_cevallosjson_1">
	<SimpleField name="id" type="string"></SimpleField>
	<SimpleField name="fill" type="string"></SimpleField>
</Schema>
<Folder><name>sandro_cevallosjson_1</name>
  <Placemark>
	<Style><LineStyle><color>ff0000ff</color></LineStyle><PolyStyle><fill>0</fill></PolyStyle></Style>
	<ExtendedData><SchemaData schemaUrl="#sandro_cevallosjson_1">
		<SimpleData name="id">Sandro cevallos</SimpleData>
		<SimpleData name="fill">#FF0000</SimpleData>
	</SchemaData></ExtendedData>
      <Polygon><outerBoundaryIs><LinearRing><coordinates>-79.4331512600183,-1.31652857276703,0 -79.4346740841866,-1.31634723625713,0 -79.4345845654607,-1.31637472164395,0 -79.4344155862927,-1.31640723484504,0 -79.434107132256,-1.31708029153122,0 -79.4342506304383,-1.31710375465942,0 -79.4340471178293,-1.31751000193001,0 -79.4339401647449,-1.3176816179188,0 -79.4339388236403,-1.31771446629031,0 -79.4340042024851,-1.31780664284068,0 -79.4331039860845,-1.31938738635181,0 -79.4338811561465,-1.31917186094917,0 -79.4332592189312,-1.32021462831485,0 -79.4330640882254,-1.32027764349362,0 -79.4324696436524,-1.32012781484787,0 -79.432532005012,-1.32007217378248,0 -79.4325829669833,-1.32001787346447,0 -79.4326074421406,-1.31991061357355,0 -79.4325581565499,-1.3198650281185,0 -79.4325377047062,-1.31982044822417,0 -79.4324937835336,-1.31975274041317,0 -79.4326161593199,-1.31889834812516,0 -79.4330101087689,-1.31891007968072,0 -79.4330047443509,-1.31881421611074,0 -79.4328709691763,-1.3188470644673,0 -79.4328813627362,-1.31867276706017,0 -79.4326748326421,-1.31865768363014,0 -79.4328951090574,-1.31782239665077,0 -79.4331683591008,-1.31789982494997,0 -79.433232396841,-1.31773859978746,0 -79.4332682713866,-1.31765714923361,0 -79.4332132861018,-1.31776239809693,0 -79.4332089275122,-1.31772251078938,0 -79.4331616535783,-1.31761223411225,0 -79.4329393655062,-1.31762161936156,0 -79.4329883158207,-1.31732665436642,0 -79.4334392622113,-1.31738296586819,0 -79.4335569441319,-1.31741614943113,0 -79.4336830079556,-1.31738966961831,0 -79.4336967542768,-1.31727570586373,0 -79.4334764778614,-1.31722408698492,0 -79.4334181398153,-1.31736754724283,0 -79.4330664351583,-1.31735246380489,0 -79.4329869747162,-1.31727939292645,0 -79.4331153854728,-1.31725090198702,0 -79.4332129508257,-1.31719324973216,0 -79.433216303587,-1.31697504263909,0 -79.4330490007997,-1.31698375751567,0 -79.4331894814968,-1.31648801506448,0 -79.4331512600183,-1.31652857276703,0</coordinates></LinearRing></outerBoundaryIs></Polygon>
  </Placemark>
</Folder>
</Document></kml>
