<?xml version="1.0" encoding="UTF-8"?>
<kml xmlns="http://www.opengis.net/kml/2.2">
<Document>
<name>SLC-021_2</name>
<Style id="sty"><LineStyle><color>ffe879f9</color><width>2</width></LineStyle><PolyStyle><color>4fe879f9</color></PolyStyle></Style>
<Placemark>
  <name>SLC-021_2</name>
  <description><![CDATA[
<table style="font-family:Arial;font-size:12px;width:100%;border-collapse:collapse;">
  <tr style="background:#9CBCE2;font-weight:bold;text-align:center;">
    <td colspan="2">SLC-021_2</td>
  </tr>
    <tr>
      <td>ID_interno</td>
      <td>SLC-021</td>
    </tr>
    <tr bgcolor="#D4E4F3">
      <td>ID_unidad </td>
      <td>SLC-021_2</td>
    </tr>
    <tr>
      <td>Area</td>
      <td>0,64</td>
    </tr>
    <tr bgcolor="#D4E4F3">
      <td>Latitud</td>
      <td>-1.295872</td>
    </tr>
    <tr>
      <td>Longitud</td>
      <td>-79.460786</td>
    </tr>
    <tr bgcolor="#D4E4F3">
      <td>Perimetro</td>
      <td>0.3813</td>
    </tr>
</table>
]]></description>
  <ExtendedData>
  <Data name="ID_interno"><value>SLC-021</value></Data>
  <Data name="ID_unidad "><value>SLC-021_2</value></Data>
  <Data name="Area"><value>0,64</value></Data>
  <Data name="Latitud"><value>-1.295872</value></Data>
  <Data name="Longitud"><value>-79.460786</value></Data>
  <Data name="Perimetro"><value>0.3813</value></Data>
</ExtendedData>
  <styleUrl>#sty</styleUrl>
  <Polygon><outerBoundaryIs><LinearRing><coordinates>-79.46089871227741,-1.2958668522236452,0 -79.46078941226006,-1.2958960137863451,0 -79.46067541837694,-1.2959529961492624,0 -79.46057550609113,-1.2960019339422721,0 -79.46044139564037,-1.2960404808333674,0 -79.46033410727979,-1.296061597825638,0 -79.46029387414457,-1.2960683016326562,0 -79.46022748947145,-1.296046849450099,0 -79.46016781032087,-1.2959724371904304,0 -79.46013495326042,-1.2958993656900768,0 -79.46013025939465,-1.295819590379944,0 -79.4601282477379,-1.2955869682427608,0 -79.46037132292986,-1.2955789236727895,0 -79.46094933897257,-1.2955728902453014,0 -79.46142174303532,-1.295636576423659,0 -79.4616986811161,-1.2956352356620289,0 -79.46154445409776,-1.2957532226830335,0 -79.46141973137857,-1.2958765727445791,0 -79.46134731173517,-1.2959583591951211,0 -79.46130976080894,-1.2959838336627723,0 -79.46126013994217,-1.2959898670892935,0 -79.46117967367174,-1.295979811378429,0</coordinates></LinearRing></outerBoundaryIs></Polygon>
</Placemark>
</Document>
</kml>