<?xml version="1.0" encoding="UTF-8"?>
<kml xmlns="http://www.opengis.net/kml/2.2">
<Document>
<name>SLC-106_2</name>
<Style id="sty"><LineStyle><color>ffe879f9</color><width>2</width></LineStyle><PolyStyle><color>4fe879f9</color></PolyStyle></Style>
<Placemark>
  <name>SLC-106_2</name>
  <description><![CDATA[
<table style="font-family:Arial;font-size:12px;width:100%;border-collapse:collapse;">
  <tr style="background:#9CBCE2;font-weight:bold;text-align:center;">
    <td colspan="2">SLC-106_2</td>
  </tr>
    <tr>
      <td>ID_interno </td>
      <td>SLC-106</td>
    </tr>
    <tr bgcolor="#D4E4F3">
      <td>ID_unidad</td>
      <td>SLC-106_2</td>
    </tr>
    <tr>
      <td>Area</td>
      <td>1.3398</td>
    </tr>
    <tr bgcolor="#D4E4F3">
      <td>Latitud</td>
      <td>-0.930181</td>
    </tr>
    <tr>
      <td>Longitud</td>
      <td>-79.654286</td>
    </tr>
    <tr bgcolor="#D4E4F3">
      <td>Perimetro</td>
      <td>0.568</td>
    </tr>
</table>
]]></description>
  <ExtendedData>
  <Data name="ID_interno "><value>SLC-106</value></Data>
  <Data name="ID_unidad"><value>SLC-106_2</value></Data>
  <Data name="Area"><value>1.3398</value></Data>
  <Data name="Latitud"><value>-0.930181</value></Data>
  <Data name="Longitud"><value>-79.654286</value></Data>
  <Data name="Perimetro"><value>0.568</value></Data>
</ExtendedData>
  <styleUrl>#sty</styleUrl>
  <Polygon><outerBoundaryIs><LinearRing><coordinates>-79.6555307384234,-0.93015804753758,0 -79.6555307384234,-0.93015804753758,0 -79.6539224766837,-0.929813728826391,0 -79.65365499258043,-0.9298488593151166,0 -79.65360671281816,-0.9299990432370092,0 -79.653577208519,-0.930068771484282,0 -79.65353161096574,-0.9302001824081139,0 -79.6534913778305,-0.9302980701339033,0 -79.65342968702318,-0.9304415493982974,0 -79.65404391288759,-0.9304710498070772,0 -79.6555845003637,-0.930556038641077,0 -79.6555307384234,-0.93015804753758,0</coordinates></LinearRing></outerBoundaryIs></Polygon>
</Placemark>
</Document>
</kml>