<?xml version="1.0" encoding="UTF-8"?>
<kml xmlns="http://www.opengis.net/kml/2.2">
<Document>
<name>SLC-021_1</name>
<Style id="sty"><LineStyle><color>ff34d399</color><width>2</width></LineStyle><PolyStyle><color>4f34d399</color></PolyStyle></Style>
<Placemark>
  <name>SLC-021_1</name>
  <description><![CDATA[
<table style="font-family:Arial;font-size:12px;width:100%;border-collapse:collapse;">
  <tr style="background:#9CBCE2;font-weight:bold;text-align:center;">
    <td colspan="2">Alvarez Cedeño Victor Justo</td>
  </tr>
    <tr>
      <td>ID_interno </td>
      <td>SLC-021</td>
    </tr>
    <tr bgcolor="#D4E4F3">
      <td>ID_interno </td>
      <td>SLC-021_1</td>
    </tr>
    <tr>
      <td>Area</td>
      <td>10,76</td>
    </tr>
    <tr bgcolor="#D4E4F3">
      <td>Latitud</td>
      <td>-1.296536</td>
    </tr>
    <tr>
      <td>Longitud</td>
      <td>-79.461083</td>
    </tr>
    <tr bgcolor="#D4E4F3">
      <td>Perimetro</td>
      <td>1.6493</td>
    </tr>
</table>
]]></description>
  <ExtendedData>
  <Data name="ID_interno "><value>SLC-021</value></Data>
  <Data name="ID_interno "><value>SLC-021_1</value></Data>
  <Data name="Area"><value>10,76</value></Data>
  <Data name="Latitud"><value>-1.296536</value></Data>
  <Data name="Longitud"><value>-79.461083</value></Data>
  <Data name="Perimetro"><value>1.6493</value></Data>
</ExtendedData>
  <styleUrl>#sty</styleUrl>
  <Polygon><outerBoundaryIs><LinearRing><coordinates>-79.4619829952717,-1.2977737495645087,0 -79.46016546338797,-1.2977767662756257,0 -79.45809245109558,-1.29773587308008,0 -79.45827417075634,-1.295571549483633,0 -79.4594905525446,-1.2955681975794688,0 -79.46008633822203,-1.2955812700056994,0 -79.46009472012521,-1.295582275576941,0 -79.46008533239366,-1.2956218280456517,0 -79.46006923913957,-1.2956781400339372,0 -79.46006655693056,-1.2957478596367549,0 -79.46006923913957,-1.295830986852973,0 -79.46009874343873,-1.2959462923419263,0 -79.46015104651453,-1.2960361233587503,0 -79.46028381586076,-1.2960991391447794,0 -79.46042865514755,-1.2960776869624766,0 -79.46060031652452,-1.2960267380287902,0 -79.46073442697526,-1.2959543369107271,0 -79.46085780858995,-1.2958980249285865,0 -79.46093022823335,-1.2959167955894357,0 -79.46103751659395,-1.2959757890940733,0 -79.46120381355287,-1.296024056505937,0 -79.46133792400362,-1.2960160119373525,0 -79.46143180131914,-1.2959623814795025,0 -79.46152299642564,-1.2958765727445791,0 -79.46159005165102,-1.2957827194374323,0 -79.46169331669807,-1.2956553470864547,0 -79.46305185556413,-1.2956513248015773,0 -79.4624326005578,-1.2966589069624053,0 -79.46228004992008,-1.2977583308187013,0 -79.46224987506866,-1.2977509566358807,0 -79.46226797997953,-1.297667159102446,0 -79.46226730942726,-1.2976101767781152,0 -79.4622726738453,-1.297502915928838,0 -79.46216002106668,-1.2974988936468994,0 -79.46206212043762,-1.2974935306043103,0 -79.46196489036085,-1.2974901787026778,0 -79.46187973022462,-1.297497552886249,0 -79.46190923452379,-1.2976571033982482,0 -79.46207553148271,-1.2977308452281082,0 -79.4620855897665,-1.2977569900581907,0</coordinates></LinearRing></outerBoundaryIs></Polygon>
</Placemark>
</Document>
</kml>