<?xml version="1.0" encoding="utf-8" ?>
<kml xmlns="http://www.opengis.net/kml/2.2">
<Document id="root_doc">
<Schema name="polgonos" id="polgonos">
	<SimpleField name="Has" type="float"></SimpleField>
	<SimpleField name="PROPIETARIO" type="string"></SimpleField>
	<SimpleField name="CODIGO" type="string"></SimpleField>
	<SimpleField name="CANTON" type="string"></SimpleField>
	<SimpleField name="PROVINCIA" type="string"></SimpleField>
</Schema>
<Folder><name>polgonos</name>
  <Placemark>
	<description><![CDATA[
<table style="font-family:Arial;font-size:12px;width:100%;border-collapse:collapse;">
  <tr style="background:#9CBCE2;font-weight:bold;text-align:center;">
    <td colspan="2">SLC-099_002</td>
  </tr>
    <tr>
      <td>ID_interno</td>
      <td>SLC-099</td>
    </tr>
    <tr bgcolor="#D4E4F3">
      <td>ID_unidad</td>
      <td>SLC-099_002</td>
    </tr>
    <tr>
      <td>Area</td>
      <td>1.567</td>
    </tr>
    <tr bgcolor="#D4E4F3">
      <td>Latitud</td>
      <td>-0.971567</td>
    </tr>
    <tr>
      <td>Longitud</td>
      <td>-79.70213</td>
    </tr>
    <tr bgcolor="#D4E4F3">
      <td>Perimetro</td>
      <td>0.569</td>
    </tr>
</table>
]]></description>
	<Style><LineStyle><color>FF232323</color><width>0.737006</width></LineStyle><PolyStyle><fill>0</fill></PolyStyle></Style>
	<ExtendedData>
  <Data name="ID_interno"><value>SLC-099</value></Data>
  <Data name="ID_unidad"><value>SLC-099_002</value></Data>
  <Data name="Area"><value>1.567</value></Data>
  <Data name="Latitud"><value>-0.971567</value></Data>
  <Data name="Longitud"><value>-79.70213</value></Data>
  <Data name="Perimetro"><value>0.569</value></Data>
</ExtendedData>
      <MultiGeometry><Polygon><outerBoundaryIs><LinearRing><coordinates>-79.702033,-0.972378 -79.702715,-0.972183 -79.702246,-0.97038 -79.701624,-0.970514 -79.702033,-0.972378</coordinates></LinearRing></outerBoundaryIs></Polygon></MultiGeometry>
  </Placemark>
</Folder>
</Document></kml>
