<?xml version="1.0" encoding="utf-8" ?>
<kml xmlns="http://www.opengis.net/kml/2.2">
<Document id="root_doc">
<Schema name="polgonos" id="polgonos">
	<SimpleField name="ID_interno" type="string"></SimpleField>
	<SimpleField name="ID_unidad" type="string"></SimpleField>
	<SimpleField name="Area" type="float"></SimpleField>
	<SimpleField name="Latitud" type="float"></SimpleField>
	<SimpleField name="Longitud" type="float"></SimpleField>
</Schema>
<Folder><name>polgonos</name>
  <Placemark>
	<description>&lt;table style=&quot;font-family:Arial;font-size:12px;width:100%;border-collapse:collapse;&quot;&gt;&lt;tr style=&quot;background:#9CBCE2;font-weight:bold;text-align:center;&quot;&gt;&lt;td colspan=&quot;2&quot;&gt;Información&lt;/td&gt;&lt;/tr&gt;&lt;tr&gt;&lt;td&gt;ID_interno&lt;/td&gt;&lt;td&gt;SLC-118&lt;/td&gt;&lt;/tr&gt;&lt;tr bgcolor=&quot;#D4E4F3&quot;&gt;&lt;td&gt;ID_unidad&lt;/td&gt;&lt;td&gt;SLC-118-003&lt;/td&gt;&lt;/tr&gt;&lt;tr&gt;&lt;td&gt;Area&lt;/td&gt;&lt;td&gt;1,57&lt;/td&gt;&lt;/tr&gt;&lt;tr bgcolor=&quot;#D4E4F3&quot;&gt;&lt;td&gt;Latitud&lt;/td&gt;&lt;td&gt;9.895.061,217000&lt;/td&gt;&lt;/tr&gt;&lt;tr&gt;&lt;td&gt;Longitud&lt;/td&gt;&lt;td&gt;657.842,617000&lt;/td&gt;&lt;/tr&gt;&lt;/table&gt;</description>
	<Style><LineStyle><color>ff0000ff</color></LineStyle><PolyStyle><fill>0</fill></PolyStyle></Style>
	<ExtendedData><SchemaData schemaUrl="#polgonos">
		<SimpleData name="ID_interno">SLC-118</SimpleData>
		<SimpleData name="ID_unidad">SLC-118-003</SimpleData>
		<SimpleData name="Area">1.571</SimpleData>
		<SimpleData name="Latitud">9895061.217</SimpleData>
		<SimpleData name="Longitud">657842.617</SimpleData>
	</SchemaData></ExtendedData>
      <MultiGeometry><Polygon><outerBoundaryIs><LinearRing><coordinates>-79.5817595626216,-0.948249635923607 -79.5806395666501,-0.949329991051556 -79.5812269374551,-0.949970584176291 -79.5822435872694,-0.948931790969482 -79.5822121607919,-0.948878415442046 -79.5817595626216,-0.948249635923607</coordinates></LinearRing></outerBoundaryIs></Polygon></MultiGeometry>
  </Placemark>
</Folder>
</Document></kml>
